<?xml version="1.0" encoding="utf-8"?>
<gpx xmlns="http://www.topografix.com/GPX/1/1" xmlns:xsi="http://www.w3.org/2001/XMLSchema-instance" version="1.1" creator="Fametta Run 2026" xsi:schemaLocation="http://www.topografix.com/GPX/1/1 http://www.topografix.com/GPX/1/1/gpx.xsd">
  <wpt lat="45.5635632" lon="9.0880549">
    <name>1 km</name>
  </wpt>
  <wpt lat="45.5563767" lon="9.0893310">
    <name>2 km</name>
  </wpt>
  <wpt lat="45.5541509" lon="9.0982712">
    <name>3 km</name>
  </wpt>
  <wpt lat="45.5554418" lon="9.1010753">
    <name>4 km</name>
  </wpt>
  <wpt lat="45.5600980" lon="9.0980332">
    <name>R 4.6 km</name>
  </wpt>
  <wpt lat="45.5629926" lon="9.1007007">
    <name>5 km</name>
  </wpt>
  <wpt lat="45.5683932" lon="9.0950628">
    <name>6 km</name>
  </wpt>
  <wpt lat="45.5721169" lon="9.1002746">
    <name>7 km</name>
  </wpt>
  <wpt lat="45.5712648" lon="9.1083657">
    <name>8 km</name>
  </wpt>
  <wpt lat="45.5634067" lon="9.1101539">
    <name>9 km</name>
  </wpt>
  <wpt lat="45.5568624" lon="9.1085151">
    <name>10 km</name>
  </wpt>
  <wpt lat="45.5512588" lon="9.1094354">
    <name>11 km</name>
  </wpt>
  <wpt lat="45.5573333" lon="9.1025761">
    <name>12 km</name>
  </wpt>
  <wpt lat="45.5600980" lon="9.0980332">
    <name>R 12.6 km</name>
  </wpt>
  <wpt lat="45.5659362" lon="9.0962273">
    <name>13 km</name>
  </wpt>
  <trk>
    <name>Percorso 13.9 km</name>
    <trkseg>
      <trkpt lat="45.5695547" lon="9.0906962">
        <ele>0.00</ele>
      </trkpt>
      <trkpt lat="45.5695336" lon="9.0902799">
        <ele>0.00</ele>
      </trkpt>
      <trkpt lat="45.5694774" lon="9.0898485">
        <ele>0.00</ele>
      </trkpt>
      <trkpt lat="45.5691824" lon="9.0900090">
        <ele>0.00</ele>
      </trkpt>
      <trkpt lat="45.5686522" lon="9.0903252">
        <ele>0.00</ele>
      </trkpt>
      <trkpt lat="45.5681921" lon="9.0906061">
        <ele>0.00</ele>
      </trkpt>
      <trkpt lat="45.5678164" lon="9.0908420">
        <ele>0.00</ele>
      </trkpt>
      <trkpt lat="45.5675811" lon="9.0909373">
        <ele>0.00</ele>
      </trkpt>
      <trkpt lat="45.5674056" lon="9.0910627">
        <ele>0.00</ele>
      </trkpt>
      <trkpt lat="45.5671949" lon="9.0912183">
        <ele>0.00</ele>
      </trkpt>
      <trkpt lat="45.5670865" lon="9.0909841">
        <ele>0.00</ele>
      </trkpt>
      <trkpt lat="45.5669685" lon="9.0906097">
        <ele>0.00</ele>
      </trkpt>
      <trkpt lat="45.5668898" lon="9.0903414">
        <ele>0.00</ele>
      </trkpt>
      <trkpt lat="45.5668374" lon="9.0900481">
        <ele>0.00</ele>
      </trkpt>
      <trkpt lat="45.5667500" lon="9.0894990">
        <ele>0.00</ele>
      </trkpt>
      <trkpt lat="45.5666931" lon="9.0889623">
        <ele>0.00</ele>
      </trkpt>
      <trkpt lat="45.5666275" lon="9.0885130">
        <ele>0.00</ele>
      </trkpt>
      <trkpt lat="45.5664877" lon="9.0876644">
        <ele>0.00</ele>
      </trkpt>
      <trkpt lat="45.5663915" lon="9.0870341">
        <ele>0.00</ele>
      </trkpt>
      <trkpt lat="45.5660857" lon="9.0871403">
        <ele>0.00</ele>
      </trkpt>
      <trkpt lat="45.5652153" lon="9.0873916">
        <ele>0.00</ele>
      </trkpt>
      <trkpt lat="45.5646803" lon="9.0875315">
        <ele>0.00</ele>
      </trkpt>
      <trkpt lat="45.5641452" lon="9.0876621">
        <ele>0.00</ele>
      </trkpt>
      <trkpt lat="45.5640702" lon="9.0877833">
        <ele>0.00</ele>
      </trkpt>
      <trkpt lat="45.5638190" lon="9.0878766">
        <ele>0.00</ele>
      </trkpt>
      <trkpt lat="45.5635319" lon="9.0879652">
        <ele>0.00</ele>
      </trkpt>
      <trkpt lat="45.5631834" lon="9.0880772">
        <ele>0.00</ele>
      </trkpt>
      <trkpt lat="45.5627636" lon="9.0881867">
        <ele>0.00</ele>
      </trkpt>
      <trkpt lat="45.5623937" lon="9.0882961">
        <ele>0.00</ele>
      </trkpt>
      <trkpt lat="45.5622337" lon="9.0883247">
        <ele>0.00</ele>
      </trkpt>
      <trkpt lat="45.5621504" lon="9.0883104">
        <ele>0.00</ele>
      </trkpt>
      <trkpt lat="45.5621238" lon="9.0882295">
        <ele>0.00</ele>
      </trkpt>
      <trkpt lat="45.5620971" lon="9.0880629">
        <ele>0.00</ele>
      </trkpt>
      <trkpt lat="45.5620505" lon="9.0874061">
        <ele>0.00</ele>
      </trkpt>
      <trkpt lat="45.5620338" lon="9.0870825">
        <ele>0.00</ele>
      </trkpt>
      <trkpt lat="45.5619305" lon="9.0868921">
        <ele>0.00</ele>
      </trkpt>
      <trkpt lat="45.5617839" lon="9.0866874">
        <ele>0.00</ele>
      </trkpt>
      <trkpt lat="45.5616972" lon="9.0866541">
        <ele>0.00</ele>
      </trkpt>
      <trkpt lat="45.5615696" lon="9.0866620">
        <ele>0.00</ele>
      </trkpt>
      <trkpt lat="45.5614635" lon="9.0866648">
        <ele>0.00</ele>
      </trkpt>
      <trkpt lat="45.5613764" lon="9.0866458">
        <ele>0.00</ele>
      </trkpt>
      <trkpt lat="45.5612836" lon="9.0866675">
        <ele>0.00</ele>
      </trkpt>
      <trkpt lat="45.5607495" lon="9.0868839">
        <ele>0.00</ele>
      </trkpt>
      <trkpt lat="45.5584908" lon="9.0877240">
        <ele>0.00</ele>
      </trkpt>
      <trkpt lat="45.5563204" lon="9.0885250">
        <ele>0.00</ele>
      </trkpt>
      <trkpt lat="45.5562871" lon="9.0885519">
        <ele>0.00</ele>
      </trkpt>
      <trkpt lat="45.5562871" lon="9.0886340">
        <ele>0.00</ele>
      </trkpt>
      <trkpt lat="45.5562999" lon="9.0888501">
        <ele>0.00</ele>
      </trkpt>
      <trkpt lat="45.5563319" lon="9.0891240">
        <ele>0.00</ele>
      </trkpt>
      <trkpt lat="45.5563511" lon="9.0893645">
        <ele>0.00</ele>
      </trkpt>
      <trkpt lat="45.5564129" lon="9.0899275">
        <ele>0.00</ele>
      </trkpt>
      <trkpt lat="45.5564981" lon="9.0908345">
        <ele>0.00</ele>
      </trkpt>
      <trkpt lat="45.5568655" lon="9.0945865">
        <ele>0.00</ele>
      </trkpt>
      <trkpt lat="45.5568895" lon="9.0948533">
        <ele>0.00</ele>
      </trkpt>
      <trkpt lat="45.5569002" lon="9.0950134">
        <ele>0.00</ele>
      </trkpt>
      <trkpt lat="45.5567320" lon="9.0950172">
        <ele>0.00</ele>
      </trkpt>
      <trkpt lat="45.5564971" lon="9.0949981">
        <ele>0.00</ele>
      </trkpt>
      <trkpt lat="45.5562169" lon="9.0949638">
        <ele>0.00</ele>
      </trkpt>
      <trkpt lat="45.5560674" lon="9.0949599">
        <ele>0.00</ele>
      </trkpt>
      <trkpt lat="45.5559820" lon="9.0950019">
        <ele>0.00</ele>
      </trkpt>
      <trkpt lat="45.5558992" lon="9.0950857">
        <ele>0.00</ele>
      </trkpt>
      <trkpt lat="45.5558565" lon="9.0952191">
        <ele>0.00</ele>
      </trkpt>
      <trkpt lat="45.5558631" lon="9.0953089">
        <ele>0.00</ele>
      </trkpt>
      <trkpt lat="45.5558820" lon="9.0954747">
        <ele>0.00</ele>
      </trkpt>
      <trkpt lat="45.5558820" lon="9.0955711">
        <ele>0.00</ele>
      </trkpt>
      <trkpt lat="45.5558398" lon="9.0956163">
        <ele>0.00</ele>
      </trkpt>
      <trkpt lat="45.5557238" lon="9.0956223">
        <ele>0.00</ele>
      </trkpt>
      <trkpt lat="45.5548798" lon="9.0957005">
        <ele>0.00</ele>
      </trkpt>
      <trkpt lat="45.5548440" lon="9.0957337">
        <ele>0.00</ele>
      </trkpt>
      <trkpt lat="45.5548503" lon="9.0958602">
        <ele>0.00</ele>
      </trkpt>
      <trkpt lat="45.5549260" lon="9.0965020">
        <ele>0.00</ele>
      </trkpt>
      <trkpt lat="45.5548893" lon="9.0965702">
        <ele>0.00</ele>
      </trkpt>
      <trkpt lat="45.5547700" lon="9.0965963">
        <ele>0.00</ele>
      </trkpt>
      <trkpt lat="45.5540717" lon="9.0967526">
        <ele>0.00</ele>
      </trkpt>
      <trkpt lat="45.5540232" lon="9.0967831">
        <ele>0.00</ele>
      </trkpt>
      <trkpt lat="45.5540096" lon="9.0968608">
        <ele>0.00</ele>
      </trkpt>
      <trkpt lat="45.5540251" lon="9.0972131">
        <ele>0.00</ele>
      </trkpt>
      <trkpt lat="45.5540503" lon="9.0979040">
        <ele>0.00</ele>
      </trkpt>
      <trkpt lat="45.5540820" lon="9.0982908">
        <ele>0.00</ele>
      </trkpt>
      <trkpt lat="45.5540750" lon="9.0985053">
        <ele>0.00</ele>
      </trkpt>
      <trkpt lat="45.5540879" lon="9.0988815">
        <ele>0.00</ele>
      </trkpt>
      <trkpt lat="45.5540943" lon="9.0992731">
        <ele>0.00</ele>
      </trkpt>
      <trkpt lat="45.5541071" lon="9.0994413">
        <ele>0.00</ele>
      </trkpt>
      <trkpt lat="45.5541285" lon="9.0995331">
        <ele>0.00</ele>
      </trkpt>
      <trkpt lat="45.5541778" lon="9.0995881">
        <ele>0.00</ele>
      </trkpt>
      <trkpt lat="45.5542720" lon="9.0996402">
        <ele>0.00</ele>
      </trkpt>
      <trkpt lat="45.5544048" lon="9.0996463">
        <ele>0.00</ele>
      </trkpt>
      <trkpt lat="45.5561902" lon="9.0991635">
        <ele>0.00</ele>
      </trkpt>
      <trkpt lat="45.5562340" lon="9.0991820">
        <ele>0.00</ele>
      </trkpt>
      <trkpt lat="45.5562885" lon="9.0991987">
        <ele>0.00</ele>
      </trkpt>
      <trkpt lat="45.5563469" lon="9.0991598">
        <ele>0.00</ele>
      </trkpt>
      <trkpt lat="45.5563741" lon="9.0991042">
        <ele>0.00</ele>
      </trkpt>
      <trkpt lat="45.5565162" lon="9.0990515">
        <ele>0.00</ele>
      </trkpt>
      <trkpt lat="45.5565901" lon="9.0990376">
        <ele>0.00</ele>
      </trkpt>
      <trkpt lat="45.5565920" lon="9.0992210">
        <ele>0.00</ele>
      </trkpt>
      <trkpt lat="45.5565784" lon="9.0994767">
        <ele>0.00</ele>
      </trkpt>
      <trkpt lat="45.5565726" lon="9.0996129">
        <ele>0.00</ele>
      </trkpt>
      <trkpt lat="45.5563160" lon="9.0996419">
        <ele>0.00</ele>
      </trkpt>
      <trkpt lat="45.5559133" lon="9.0997301">
        <ele>0.00</ele>
      </trkpt>
      <trkpt lat="45.5555059" lon="9.0997821">
        <ele>0.00</ele>
      </trkpt>
      <trkpt lat="45.5549533" lon="9.0998641">
        <ele>0.00</ele>
      </trkpt>
      <trkpt lat="45.5546036" lon="9.0998967">
        <ele>0.00</ele>
      </trkpt>
      <trkpt lat="45.5542923" lon="9.0999843">
        <ele>0.00</ele>
      </trkpt>
      <trkpt lat="45.5539355" lon="9.1000226">
        <ele>0.00</ele>
      </trkpt>
      <trkpt lat="45.5538458" lon="9.1001082">
        <ele>0.00</ele>
      </trkpt>
      <trkpt lat="45.5537261" lon="9.1002791">
        <ele>0.00</ele>
      </trkpt>
      <trkpt lat="45.5537618" lon="9.1004528">
        <ele>0.00</ele>
      </trkpt>
      <trkpt lat="45.5538687" lon="9.1007293">
        <ele>0.00</ele>
      </trkpt>
      <trkpt lat="45.5539600" lon="9.1009633">
        <ele>0.00</ele>
      </trkpt>
      <trkpt lat="45.5540434" lon="9.1011749">
        <ele>0.00</ele>
      </trkpt>
      <trkpt lat="45.5541025" lon="9.1012375">
        <ele>0.00</ele>
      </trkpt>
      <trkpt lat="45.5541336" lon="9.1013172">
        <ele>0.00</ele>
      </trkpt>
      <trkpt lat="45.5541809" lon="9.1014035">
        <ele>0.00</ele>
      </trkpt>
      <trkpt lat="45.5546349" lon="9.1012369">
        <ele>0.00</ele>
      </trkpt>
      <trkpt lat="45.5550761" lon="9.1010609">
        <ele>0.00</ele>
      </trkpt>
      <trkpt lat="45.5555622" lon="9.1008799">
        <ele>0.00</ele>
      </trkpt>
      <trkpt lat="45.5558571" lon="9.1007522">
        <ele>0.00</ele>
      </trkpt>
      <trkpt lat="45.5561339" lon="9.1006528">
        <ele>0.00</ele>
      </trkpt>
      <trkpt lat="45.5563074" lon="9.1005752">
        <ele>0.00</ele>
      </trkpt>
      <trkpt lat="45.5564080" lon="9.1005386">
        <ele>0.00</ele>
      </trkpt>
      <trkpt lat="45.5565060" lon="9.1004839">
        <ele>0.00</ele>
      </trkpt>
      <trkpt lat="45.5565556" lon="9.1003748">
        <ele>0.00</ele>
      </trkpt>
      <trkpt lat="45.5565772" lon="9.1001857">
        <ele>0.00</ele>
      </trkpt>
      <trkpt lat="45.5565937" lon="9.0998274">
        <ele>0.00</ele>
      </trkpt>
      <trkpt lat="45.5565980" lon="9.0996273">
        <ele>0.00</ele>
      </trkpt>
      <trkpt lat="45.5566426" lon="9.0996018">
        <ele>0.00</ele>
      </trkpt>
      <trkpt lat="45.5566776" lon="9.0995434">
        <ele>0.00</ele>
      </trkpt>
      <trkpt lat="45.5566796" lon="9.0994517">
        <ele>0.00</ele>
      </trkpt>
      <trkpt lat="45.5566874" lon="9.0993433">
        <ele>0.00</ele>
      </trkpt>
      <trkpt lat="45.5566952" lon="9.0992627">
        <ele>0.00</ele>
      </trkpt>
      <trkpt lat="45.5567244" lon="9.0992044">
        <ele>0.00</ele>
      </trkpt>
      <trkpt lat="45.5567828" lon="9.0991488">
        <ele>0.00</ele>
      </trkpt>
      <trkpt lat="45.5568587" lon="9.0991210">
        <ele>0.00</ele>
      </trkpt>
      <trkpt lat="45.5587481" lon="9.0984954">
        <ele>0.00</ele>
      </trkpt>
      <trkpt lat="45.5590728" lon="9.0983643">
        <ele>0.00</ele>
      </trkpt>
      <trkpt lat="45.5593712" lon="9.0982332">
        <ele>0.00</ele>
      </trkpt>
      <trkpt lat="45.5596991" lon="9.0981161">
        <ele>0.00</ele>
      </trkpt>
      <trkpt lat="45.5597984" lon="9.0980789">
        <ele>0.00</ele>
      </trkpt>
      <trkpt lat="45.5598716" lon="9.0980462">
        <ele>0.00</ele>
      </trkpt>
      <trkpt lat="45.5599448" lon="9.0980299">
        <ele>0.00</ele>
      </trkpt>
      <trkpt lat="45.5601025" lon="9.0981606">
        <ele>0.00</ele>
      </trkpt>
      <trkpt lat="45.5602512" lon="9.0982684">
        <ele>0.00</ele>
      </trkpt>
      <trkpt lat="45.5606765" lon="9.0985787">
        <ele>0.00</ele>
      </trkpt>
      <trkpt lat="45.5610446" lon="9.0988466">
        <ele>0.00</ele>
      </trkpt>
      <trkpt lat="45.5612870" lon="9.0990492">
        <ele>0.00</ele>
      </trkpt>
      <trkpt lat="45.5614410" lon="9.0991645">
        <ele>0.00</ele>
      </trkpt>
      <trkpt lat="45.5615879" lon="9.0992733">
        <ele>0.00</ele>
      </trkpt>
      <trkpt lat="45.5617565" lon="9.0994015">
        <ele>0.00</ele>
      </trkpt>
      <trkpt lat="45.5619442" lon="9.0995376">
        <ele>0.00</ele>
      </trkpt>
      <trkpt lat="45.5620422" lon="9.0996153">
        <ele>0.00</ele>
      </trkpt>
      <trkpt lat="45.5620911" lon="9.0996153">
        <ele>0.00</ele>
      </trkpt>
      <trkpt lat="45.5621302" lon="9.0996313">
        <ele>0.00</ele>
      </trkpt>
      <trkpt lat="45.5622440" lon="9.0997743">
        <ele>0.00</ele>
      </trkpt>
      <trkpt lat="45.5623568" lon="9.0999229">
        <ele>0.00</ele>
      </trkpt>
      <trkpt lat="45.5624559" lon="9.1000658">
        <ele>0.00</ele>
      </trkpt>
      <trkpt lat="45.5625432" lon="9.1001976">
        <ele>0.00</ele>
      </trkpt>
      <trkpt lat="45.5626197" lon="9.1003097">
        <ele>0.00</ele>
      </trkpt>
      <trkpt lat="45.5627158" lon="9.1004821">
        <ele>0.00</ele>
      </trkpt>
      <trkpt lat="45.5627946" lon="9.1006014">
        <ele>0.00</ele>
      </trkpt>
      <trkpt lat="45.5628856" lon="9.1007659">
        <ele>0.00</ele>
      </trkpt>
      <trkpt lat="45.5629789" lon="9.1009058">
        <ele>0.00</ele>
      </trkpt>
      <trkpt lat="45.5630377" lon="9.1010128">
        <ele>0.00</ele>
      </trkpt>
      <trkpt lat="45.5630929" lon="9.1011214">
        <ele>0.00</ele>
      </trkpt>
      <trkpt lat="45.5631275" lon="9.1012563">
        <ele>0.00</ele>
      </trkpt>
      <trkpt lat="45.5631321" lon="9.1014044">
        <ele>0.00</ele>
      </trkpt>
      <trkpt lat="45.5631102" lon="9.1015821">
        <ele>0.00</ele>
      </trkpt>
      <trkpt lat="45.5630560" lon="9.1018569">
        <ele>0.00</ele>
      </trkpt>
      <trkpt lat="45.5630260" lon="9.1019781">
        <ele>0.00</ele>
      </trkpt>
      <trkpt lat="45.5630060" lon="9.1021080">
        <ele>0.00</ele>
      </trkpt>
      <trkpt lat="45.5629823" lon="9.1022444">
        <ele>0.00</ele>
      </trkpt>
      <trkpt lat="45.5629759" lon="9.1023301">
        <ele>0.00</ele>
      </trkpt>
      <trkpt lat="45.5629705" lon="9.1024185">
        <ele>0.00</ele>
      </trkpt>
      <trkpt lat="45.5630041" lon="9.1024250">
        <ele>0.00</ele>
      </trkpt>
      <trkpt lat="45.5630259" lon="9.1023951">
        <ele>0.00</ele>
      </trkpt>
      <trkpt lat="45.5630787" lon="9.1022808">
        <ele>0.00</ele>
      </trkpt>
      <trkpt lat="45.5631433" lon="9.1021055">
        <ele>0.00</ele>
      </trkpt>
      <trkpt lat="45.5632770" lon="9.1016846">
        <ele>0.00</ele>
      </trkpt>
      <trkpt lat="45.5633794" lon="9.1013348">
        <ele>0.00</ele>
      </trkpt>
      <trkpt lat="45.5634422" lon="9.1010657">
        <ele>0.00</ele>
      </trkpt>
      <trkpt lat="45.5634877" lon="9.1008886">
        <ele>0.00</ele>
      </trkpt>
      <trkpt lat="45.5635301" lon="9.1007855">
        <ele>0.00</ele>
      </trkpt>
      <trkpt lat="45.5635772" lon="9.1007317">
        <ele>0.00</ele>
      </trkpt>
      <trkpt lat="45.5636714" lon="9.1006891">
        <ele>0.00</ele>
      </trkpt>
      <trkpt lat="45.5637359" lon="9.1006614">
        <ele>0.00</ele>
      </trkpt>
      <trkpt lat="45.5637837" lon="9.1006177">
        <ele>0.00</ele>
      </trkpt>
      <trkpt lat="45.5638392" lon="9.1005166">
        <ele>0.00</ele>
      </trkpt>
      <trkpt lat="45.5639311" lon="9.1003117">
        <ele>0.00</ele>
      </trkpt>
      <trkpt lat="45.5640095" lon="9.1001342">
        <ele>0.00</ele>
      </trkpt>
      <trkpt lat="45.5641224" lon="9.1000085">
        <ele>0.00</ele>
      </trkpt>
      <trkpt lat="45.5643921" lon="9.0998146">
        <ele>0.00</ele>
      </trkpt>
      <trkpt lat="45.5645853" lon="9.0996234">
        <ele>0.00</ele>
      </trkpt>
      <trkpt lat="45.5647250" lon="9.0995223">
        <ele>0.00</ele>
      </trkpt>
      <trkpt lat="45.5649158" lon="9.0994263">
        <ele>0.00</ele>
      </trkpt>
      <trkpt lat="45.5651138" lon="9.0992966">
        <ele>0.00</ele>
      </trkpt>
      <trkpt lat="45.5651811" lon="9.0992318">
        <ele>0.00</ele>
      </trkpt>
      <trkpt lat="45.5652283" lon="9.0991409">
        <ele>0.00</ele>
      </trkpt>
      <trkpt lat="45.5652429" lon="9.0990242">
        <ele>0.00</ele>
      </trkpt>
      <trkpt lat="45.5652901" lon="9.0988607">
        <ele>0.00</ele>
      </trkpt>
      <trkpt lat="45.5653464" lon="9.0988036">
        <ele>0.00</ele>
      </trkpt>
      <trkpt lat="45.5654518" lon="9.0987569">
        <ele>0.00</ele>
      </trkpt>
      <trkpt lat="45.5655554" lon="9.0987154">
        <ele>0.00</ele>
      </trkpt>
      <trkpt lat="45.5656647" lon="9.0986174">
        <ele>0.00</ele>
      </trkpt>
      <trkpt lat="45.5657957" lon="9.0984957">
        <ele>0.00</ele>
      </trkpt>
      <trkpt lat="45.5658788" lon="9.0984271">
        <ele>0.00</ele>
      </trkpt>
      <trkpt lat="45.5659115" lon="9.0983428">
        <ele>0.00</ele>
      </trkpt>
      <trkpt lat="45.5659487" lon="9.0982461">
        <ele>0.00</ele>
      </trkpt>
      <trkpt lat="45.5659793" lon="9.0981276">
        <ele>0.00</ele>
      </trkpt>
      <trkpt lat="45.5659968" lon="9.0979840">
        <ele>0.00</ele>
      </trkpt>
      <trkpt lat="45.5660536" lon="9.0978436">
        <ele>0.00</ele>
      </trkpt>
      <trkpt lat="45.5661868" lon="9.0976814">
        <ele>0.00</ele>
      </trkpt>
      <trkpt lat="45.5662873" lon="9.0975098">
        <ele>0.00</ele>
      </trkpt>
      <trkpt lat="45.5664097" lon="9.0972571">
        <ele>0.00</ele>
      </trkpt>
      <trkpt lat="45.5665086" lon="9.0970654">
        <ele>0.00</ele>
      </trkpt>
      <trkpt lat="45.5665980" lon="9.0968243">
        <ele>0.00</ele>
      </trkpt>
      <trkpt lat="45.5666477" lon="9.0966825">
        <ele>0.00</ele>
      </trkpt>
      <trkpt lat="45.5669555" lon="9.0963610">
        <ele>0.00</ele>
      </trkpt>
      <trkpt lat="45.5676010" lon="9.0956567">
        <ele>0.00</ele>
      </trkpt>
      <trkpt lat="45.5681372" lon="9.0950893">
        <ele>0.00</ele>
      </trkpt>
      <trkpt lat="45.5686039" lon="9.0945882">
        <ele>0.00</ele>
      </trkpt>
      <trkpt lat="45.5689487" lon="9.0941794">
        <ele>0.00</ele>
      </trkpt>
      <trkpt lat="45.5694893" lon="9.0935850">
        <ele>0.00</ele>
      </trkpt>
      <trkpt lat="45.5698876" lon="9.0930821">
        <ele>0.00</ele>
      </trkpt>
      <trkpt lat="45.5702789" lon="9.0926198">
        <ele>0.00</ele>
      </trkpt>
      <trkpt lat="45.5704851" lon="9.0923709">
        <ele>0.00</ele>
      </trkpt>
      <trkpt lat="45.5705669" lon="9.0922693">
        <ele>0.00</ele>
      </trkpt>
      <trkpt lat="45.5706274" lon="9.0922846">
        <ele>0.00</ele>
      </trkpt>
      <trkpt lat="45.5706725" lon="9.0923848">
        <ele>0.00</ele>
      </trkpt>
      <trkpt lat="45.5707641" lon="9.0925241">
        <ele>0.00</ele>
      </trkpt>
      <trkpt lat="45.5708675" lon="9.0926160">
        <ele>0.00</ele>
      </trkpt>
      <trkpt lat="45.5710273" lon="9.0928862">
        <ele>0.00</ele>
      </trkpt>
      <trkpt lat="45.5711385" lon="9.0931062">
        <ele>0.00</ele>
      </trkpt>
      <trkpt lat="45.5712262" lon="9.0933095">
        <ele>0.00</ele>
      </trkpt>
      <trkpt lat="45.5712749" lon="9.0935212">
        <ele>0.00</ele>
      </trkpt>
      <trkpt lat="45.5713763" lon="9.0937719">
        <ele>0.00</ele>
      </trkpt>
      <trkpt lat="45.5714646" lon="9.0940057">
        <ele>0.00</ele>
      </trkpt>
      <trkpt lat="45.5715716" lon="9.0943158">
        <ele>0.00</ele>
      </trkpt>
      <trkpt lat="45.5716677" lon="9.0946769">
        <ele>0.00</ele>
      </trkpt>
      <trkpt lat="45.5717638" lon="9.0950823">
        <ele>0.00</ele>
      </trkpt>
      <trkpt lat="45.5718367" lon="9.0955209">
        <ele>0.00</ele>
      </trkpt>
      <trkpt lat="45.5719015" lon="9.0959035">
        <ele>0.00</ele>
      </trkpt>
      <trkpt lat="45.5719517" lon="9.0960872">
        <ele>0.00</ele>
      </trkpt>
      <trkpt lat="45.5719738" lon="9.0966554">
        <ele>0.00</ele>
      </trkpt>
      <trkpt lat="45.5719818" lon="9.0971347">
        <ele>0.00</ele>
      </trkpt>
      <trkpt lat="45.5719938" lon="9.0977603">
        <ele>0.00</ele>
      </trkpt>
      <trkpt lat="45.5720138" lon="9.0987044">
        <ele>0.00</ele>
      </trkpt>
      <trkpt lat="45.5720278" lon="9.0995137">
        <ele>0.00</ele>
      </trkpt>
      <trkpt lat="45.5720578" lon="9.1009418">
        <ele>0.00</ele>
      </trkpt>
      <trkpt lat="45.5720840" lon="9.1020400">
        <ele>0.00</ele>
      </trkpt>
      <trkpt lat="45.5721397" lon="9.1048821">
        <ele>0.00</ele>
      </trkpt>
      <trkpt lat="45.5721090" lon="9.1049743">
        <ele>0.00</ele>
      </trkpt>
      <trkpt lat="45.5720353" lon="9.1050488">
        <ele>0.00</ele>
      </trkpt>
      <trkpt lat="45.5719769" lon="9.1051629">
        <ele>0.00</ele>
      </trkpt>
      <trkpt lat="45.5719769" lon="9.1054042">
        <ele>0.00</ele>
      </trkpt>
      <trkpt lat="45.5720905" lon="9.1057684">
        <ele>0.00</ele>
      </trkpt>
      <trkpt lat="45.5721644" lon="9.1060206">
        <ele>0.00</ele>
      </trkpt>
      <trkpt lat="45.5722600" lon="9.1063232">
        <ele>0.00</ele>
      </trkpt>
      <trkpt lat="45.5723855" lon="9.1065374">
        <ele>0.00</ele>
      </trkpt>
      <trkpt lat="45.5724867" lon="9.1066767">
        <ele>0.00</ele>
      </trkpt>
      <trkpt lat="45.5726029" lon="9.1067329">
        <ele>0.00</ele>
      </trkpt>
      <trkpt lat="45.5727322" lon="9.1068187">
        <ele>0.00</ele>
      </trkpt>
      <trkpt lat="45.5729308" lon="9.1070142">
        <ele>0.00</ele>
      </trkpt>
      <trkpt lat="45.5730848" lon="9.1071172">
        <ele>0.00</ele>
      </trkpt>
      <trkpt lat="45.5732617" lon="9.1071993">
        <ele>0.00</ele>
      </trkpt>
      <trkpt lat="45.5733570" lon="9.1072296">
        <ele>0.00</ele>
      </trkpt>
      <trkpt lat="45.5735794" lon="9.1073572">
        <ele>0.00</ele>
      </trkpt>
      <trkpt lat="45.5736656" lon="9.1073875">
        <ele>0.00</ele>
      </trkpt>
      <trkpt lat="45.5736845" lon="9.1074779">
        <ele>0.00</ele>
      </trkpt>
      <trkpt lat="45.5736654" lon="9.1076412">
        <ele>0.00</ele>
      </trkpt>
      <trkpt lat="45.5736630" lon="9.1078386">
        <ele>0.00</ele>
      </trkpt>
      <trkpt lat="45.5736891" lon="9.1081244">
        <ele>0.00</ele>
      </trkpt>
      <trkpt lat="45.5736653" lon="9.1082197">
        <ele>0.00</ele>
      </trkpt>
      <trkpt lat="45.5735129" lon="9.1082468">
        <ele>0.00</ele>
      </trkpt>
      <trkpt lat="45.5730246" lon="9.1082501">
        <ele>0.00</ele>
      </trkpt>
      <trkpt lat="45.5726126" lon="9.1082635">
        <ele>0.00</ele>
      </trkpt>
      <trkpt lat="45.5722112" lon="9.1082678">
        <ele>0.00</ele>
      </trkpt>
      <trkpt lat="45.5718156" lon="9.1082437">
        <ele>0.00</ele>
      </trkpt>
      <trkpt lat="45.5715070" lon="9.1082516">
        <ele>0.00</ele>
      </trkpt>
      <trkpt lat="45.5712488" lon="9.1082635">
        <ele>0.00</ele>
      </trkpt>
      <trkpt lat="45.5709066" lon="9.1082634">
        <ele>0.00</ele>
      </trkpt>
      <trkpt lat="45.5705390" lon="9.1083194">
        <ele>0.00</ele>
      </trkpt>
      <trkpt lat="45.5702332" lon="9.1084595">
        <ele>0.00</ele>
      </trkpt>
      <trkpt lat="45.5700592" lon="9.1085597">
        <ele>0.00</ele>
      </trkpt>
      <trkpt lat="45.5699898" lon="9.1086004">
        <ele>0.00</ele>
      </trkpt>
      <trkpt lat="45.5699086" lon="9.1086347">
        <ele>0.00</ele>
      </trkpt>
      <trkpt lat="45.5697945" lon="9.1086926">
        <ele>0.00</ele>
      </trkpt>
      <trkpt lat="45.5696547" lon="9.1087634">
        <ele>0.00</ele>
      </trkpt>
      <trkpt lat="45.5694324" lon="9.1088513">
        <ele>0.00</ele>
      </trkpt>
      <trkpt lat="45.5687631" lon="9.1091953">
        <ele>0.00</ele>
      </trkpt>
      <trkpt lat="45.5684203" lon="9.1093522">
        <ele>0.00</ele>
      </trkpt>
      <trkpt lat="45.5682489" lon="9.1093753">
        <ele>0.00</ele>
      </trkpt>
      <trkpt lat="45.5678026" lon="9.1093382">
        <ele>0.00</ele>
      </trkpt>
      <trkpt lat="45.5671461" lon="9.1092409">
        <ele>0.00</ele>
      </trkpt>
      <trkpt lat="45.5660190" lon="9.1091057">
        <ele>0.00</ele>
      </trkpt>
      <trkpt lat="45.5651372" lon="9.1089754">
        <ele>0.00</ele>
      </trkpt>
      <trkpt lat="45.5645758" lon="9.1088962">
        <ele>0.00</ele>
      </trkpt>
      <trkpt lat="45.5642880" lon="9.1088377">
        <ele>0.00</ele>
      </trkpt>
      <trkpt lat="45.5640940" lon="9.1090006">
        <ele>0.00</ele>
      </trkpt>
      <trkpt lat="45.5638886" lon="9.1090331">
        <ele>0.00</ele>
      </trkpt>
      <trkpt lat="45.5636548" lon="9.1089597">
        <ele>0.00</ele>
      </trkpt>
      <trkpt lat="45.5634779" lon="9.1090411">
        <ele>0.00</ele>
      </trkpt>
      <trkpt lat="45.5632555" lon="9.1090900">
        <ele>0.00</ele>
      </trkpt>
      <trkpt lat="45.5631470" lon="9.1092366">
        <ele>0.00</ele>
      </trkpt>
      <trkpt lat="45.5632154" lon="9.1096032">
        <ele>0.00</ele>
      </trkpt>
      <trkpt lat="45.5633009" lon="9.1101817">
        <ele>0.00</ele>
      </trkpt>
      <trkpt lat="45.5633806" lon="9.1107440">
        <ele>0.00</ele>
      </trkpt>
      <trkpt lat="45.5633863" lon="9.1110780">
        <ele>0.00</ele>
      </trkpt>
      <trkpt lat="45.5633235" lon="9.1112735">
        <ele>0.00</ele>
      </trkpt>
      <trkpt lat="45.5631010" lon="9.1115505">
        <ele>0.00</ele>
      </trkpt>
      <trkpt lat="45.5625476" lon="9.1116806">
        <ele>0.00</ele>
      </trkpt>
      <trkpt lat="45.5617319" lon="9.1118758">
        <ele>0.00</ele>
      </trkpt>
      <trkpt lat="45.5611215" lon="9.1120548">
        <ele>0.00</ele>
      </trkpt>
      <trkpt lat="45.5608895" lon="9.1121243">
        <ele>0.00</ele>
      </trkpt>
      <trkpt lat="45.5605995" lon="9.1121515">
        <ele>0.00</ele>
      </trkpt>
      <trkpt lat="45.5603362" lon="9.1121786">
        <ele>0.00</ele>
      </trkpt>
      <trkpt lat="45.5601569" lon="9.1121077">
        <ele>0.00</ele>
      </trkpt>
      <trkpt lat="45.5599661" lon="9.1119550">
        <ele>0.00</ele>
      </trkpt>
      <trkpt lat="45.5597906" lon="9.1117043">
        <ele>0.00</ele>
      </trkpt>
      <trkpt lat="45.5596190" lon="9.1113717">
        <ele>0.00</ele>
      </trkpt>
      <trkpt lat="45.5595809" lon="9.1110502">
        <ele>0.00</ele>
      </trkpt>
      <trkpt lat="45.5595810" lon="9.1107886">
        <ele>0.00</ele>
      </trkpt>
      <trkpt lat="45.5594749" lon="9.1107140">
        <ele>0.00</ele>
      </trkpt>
      <trkpt lat="45.5591551" lon="9.1107574">
        <ele>0.00</ele>
      </trkpt>
      <trkpt lat="45.5588454" lon="9.1108877">
        <ele>0.00</ele>
      </trkpt>
      <trkpt lat="45.5586372" lon="9.1111342">
        <ele>0.00</ele>
      </trkpt>
      <trkpt lat="45.5585560" lon="9.1111486">
        <ele>0.00</ele>
      </trkpt>
      <trkpt lat="45.5583378" lon="9.1108150">
        <ele>0.00</ele>
      </trkpt>
      <trkpt lat="45.5582386" lon="9.1106821">
        <ele>0.00</ele>
      </trkpt>
      <trkpt lat="45.5578888" lon="9.1101921">
        <ele>0.00</ele>
      </trkpt>
      <trkpt lat="45.5574801" lon="9.1096230">
        <ele>0.00</ele>
      </trkpt>
      <trkpt lat="45.5571649" lon="9.1091825">
        <ele>0.00</ele>
      </trkpt>
      <trkpt lat="45.5567943" lon="9.1085540">
        <ele>0.00</ele>
      </trkpt>
      <trkpt lat="45.5566558" lon="9.1083115">
        <ele>0.00</ele>
      </trkpt>
      <trkpt lat="45.5565900" lon="9.1082966">
        <ele>0.00</ele>
      </trkpt>
      <trkpt lat="45.5563855" lon="9.1085192">
        <ele>0.00</ele>
      </trkpt>
      <trkpt lat="45.5560425" lon="9.1088951">
        <ele>0.00</ele>
      </trkpt>
      <trkpt lat="45.5558466" lon="9.1091139">
        <ele>0.00</ele>
      </trkpt>
      <trkpt lat="45.5555817" lon="9.1094163">
        <ele>0.00</ele>
      </trkpt>
      <trkpt lat="45.5554806" lon="9.1095435">
        <ele>0.00</ele>
      </trkpt>
      <trkpt lat="45.5554373" lon="9.1096363">
        <ele>0.00</ele>
      </trkpt>
      <trkpt lat="45.5553169" lon="9.1097669">
        <ele>0.00</ele>
      </trkpt>
      <trkpt lat="45.5553000" lon="9.1099697">
        <ele>0.00</ele>
      </trkpt>
      <trkpt lat="45.5553311" lon="9.1106779">
        <ele>0.00</ele>
      </trkpt>
      <trkpt lat="45.5553551" lon="9.1112143">
        <ele>0.00</ele>
      </trkpt>
      <trkpt lat="45.5553623" lon="9.1114446">
        <ele>0.00</ele>
      </trkpt>
      <trkpt lat="45.5552877" lon="9.1115099">
        <ele>0.00</ele>
      </trkpt>
      <trkpt lat="45.5547706" lon="9.1116627">
        <ele>0.00</ele>
      </trkpt>
      <trkpt lat="45.5539535" lon="9.1119058">
        <ele>0.00</ele>
      </trkpt>
      <trkpt lat="45.5534908" lon="9.1120138">
        <ele>0.00</ele>
      </trkpt>
      <trkpt lat="45.5533196" lon="9.1120548">
        <ele>0.00</ele>
      </trkpt>
      <trkpt lat="45.5531878" lon="9.1120595">
        <ele>0.00</ele>
      </trkpt>
      <trkpt lat="45.5530492" lon="9.1122120">
        <ele>0.00</ele>
      </trkpt>
      <trkpt lat="45.5529224" lon="9.1123334">
        <ele>0.00</ele>
      </trkpt>
      <trkpt lat="45.5528957" lon="9.1123668">
        <ele>0.00</ele>
      </trkpt>
      <trkpt lat="45.5526304" lon="9.1119020">
        <ele>0.00</ele>
      </trkpt>
      <trkpt lat="45.5526872" lon="9.1118401">
        <ele>0.00</ele>
      </trkpt>
      <trkpt lat="45.5527022" lon="9.1117352">
        <ele>0.00</ele>
      </trkpt>
      <trkpt lat="45.5525838" lon="9.1115787">
        <ele>0.00</ele>
      </trkpt>
      <trkpt lat="45.5524481" lon="9.1114713">
        <ele>0.00</ele>
      </trkpt>
      <trkpt lat="45.5521040" lon="9.1112601">
        <ele>0.00</ele>
      </trkpt>
      <trkpt lat="45.5518285" lon="9.1110630">
        <ele>0.00</ele>
      </trkpt>
      <trkpt lat="45.5515852" lon="9.1109667">
        <ele>0.00</ele>
      </trkpt>
      <trkpt lat="45.5514560" lon="9.1109720">
        <ele>0.00</ele>
      </trkpt>
      <trkpt lat="45.5512482" lon="9.1111323">
        <ele>0.00</ele>
      </trkpt>
      <trkpt lat="45.5511678" lon="9.1109344">
        <ele>0.00</ele>
      </trkpt>
      <trkpt lat="45.5512651" lon="9.1108302">
        <ele>0.00</ele>
      </trkpt>
      <trkpt lat="45.5513101" lon="9.1106966">
        <ele>0.00</ele>
      </trkpt>
      <trkpt lat="45.5512933" lon="9.1104266">
        <ele>0.00</ele>
      </trkpt>
      <trkpt lat="45.5512559" lon="9.1099909">
        <ele>0.00</ele>
      </trkpt>
      <trkpt lat="45.5512249" lon="9.1096541">
        <ele>0.00</ele>
      </trkpt>
      <trkpt lat="45.5512041" lon="9.1094044">
        <ele>0.00</ele>
      </trkpt>
      <trkpt lat="45.5512180" lon="9.1092783">
        <ele>0.00</ele>
      </trkpt>
      <trkpt lat="45.5512648" lon="9.1091868">
        <ele>0.00</ele>
      </trkpt>
      <trkpt lat="45.5513669" lon="9.1091251">
        <ele>0.00</ele>
      </trkpt>
      <trkpt lat="45.5516007" lon="9.1090707">
        <ele>0.00</ele>
      </trkpt>
      <trkpt lat="45.5518310" lon="9.1089620">
        <ele>0.00</ele>
      </trkpt>
      <trkpt lat="45.5521843" lon="9.1087545">
        <ele>0.00</ele>
      </trkpt>
      <trkpt lat="45.5527921" lon="9.1083205">
        <ele>0.00</ele>
      </trkpt>
      <trkpt lat="45.5533354" lon="9.1079716">
        <ele>0.00</ele>
      </trkpt>
      <trkpt lat="45.5539397" lon="9.1075452">
        <ele>0.00</ele>
      </trkpt>
      <trkpt lat="45.5544083" lon="9.1072739">
        <ele>0.00</ele>
      </trkpt>
      <trkpt lat="45.5546629" lon="9.1070994">
        <ele>0.00</ele>
      </trkpt>
      <trkpt lat="45.5547037" lon="9.1069685">
        <ele>0.00</ele>
      </trkpt>
      <trkpt lat="45.5547309" lon="9.1067067">
        <ele>0.00</ele>
      </trkpt>
      <trkpt lat="45.5547548" lon="9.1057661">
        <ele>0.00</ele>
      </trkpt>
      <trkpt lat="45.5548059" lon="9.1043795">
        <ele>0.00</ele>
      </trkpt>
      <trkpt lat="45.5548437" lon="9.1041300">
        <ele>0.00</ele>
      </trkpt>
      <trkpt lat="45.5549098" lon="9.1039288">
        <ele>0.00</ele>
      </trkpt>
      <trkpt lat="45.5549891" lon="9.1038220">
        <ele>0.00</ele>
      </trkpt>
      <trkpt lat="45.5553369" lon="9.1036146">
        <ele>0.00</ele>
      </trkpt>
      <trkpt lat="45.5554777" lon="9.1035706">
        <ele>0.00</ele>
      </trkpt>
      <trkpt lat="45.5555174" lon="9.1035455">
        <ele>0.00</ele>
      </trkpt>
      <trkpt lat="45.5558784" lon="9.1034576">
        <ele>0.00</ele>
      </trkpt>
      <trkpt lat="45.5562526" lon="9.1034074">
        <ele>0.00</ele>
      </trkpt>
      <trkpt lat="45.5566928" lon="9.1033320">
        <ele>0.00</ele>
      </trkpt>
      <trkpt lat="45.5569349" lon="9.1031812">
        <ele>0.00</ele>
      </trkpt>
      <trkpt lat="45.5571243" lon="9.1029800">
        <ele>0.00</ele>
      </trkpt>
      <trkpt lat="45.5572167" lon="9.1027286">
        <ele>0.00</ele>
      </trkpt>
      <trkpt lat="45.5572344" lon="9.1024960">
        <ele>0.00</ele>
      </trkpt>
      <trkpt lat="45.5570143" lon="9.1018923">
        <ele>0.00</ele>
      </trkpt>
      <trkpt lat="45.5565654" lon="9.1006097">
        <ele>0.00</ele>
      </trkpt>
      <trkpt lat="45.5565830" lon="9.1005279">
        <ele>0.00</ele>
      </trkpt>
      <trkpt lat="45.5566623" lon="9.1005217">
        <ele>0.00</ele>
      </trkpt>
      <trkpt lat="45.5572962" lon="9.1002892">
        <ele>0.00</ele>
      </trkpt>
      <trkpt lat="45.5585282" lon="9.0998230">
        <ele>0.00</ele>
      </trkpt>
      <trkpt lat="45.5588233" lon="9.0997051">
        <ele>0.00</ele>
      </trkpt>
      <trkpt lat="45.5590742" lon="9.0994185">
        <ele>0.00</ele>
      </trkpt>
      <trkpt lat="45.5594786" lon="9.0989760">
        <ele>0.00</ele>
      </trkpt>
      <trkpt lat="45.5597531" lon="9.0986219">
        <ele>0.00</ele>
      </trkpt>
      <trkpt lat="45.5599892" lon="9.0982468">
        <ele>0.00</ele>
      </trkpt>
      <trkpt lat="45.5600925" lon="9.0980529">
        <ele>0.00</ele>
      </trkpt>
      <trkpt lat="45.5601744" lon="9.0979591">
        <ele>0.00</ele>
      </trkpt>
      <trkpt lat="45.5605154" lon="9.0977947">
        <ele>0.00</ele>
      </trkpt>
      <trkpt lat="45.5610461" lon="9.0976174">
        <ele>0.00</ele>
      </trkpt>
      <trkpt lat="45.5614274" lon="9.0974864">
        <ele>0.00</ele>
      </trkpt>
      <trkpt lat="45.5618597" lon="9.0973473">
        <ele>0.00</ele>
      </trkpt>
      <trkpt lat="45.5627608" lon="9.0970779">
        <ele>0.00</ele>
      </trkpt>
      <trkpt lat="45.5637957" lon="9.0967041">
        <ele>0.00</ele>
      </trkpt>
      <trkpt lat="45.5652021" lon="9.0962608">
        <ele>0.00</ele>
      </trkpt>
      <trkpt lat="45.5659403" lon="9.0960186">
        <ele>0.00</ele>
      </trkpt>
      <trkpt lat="45.5664220" lon="9.0958612">
        <ele>0.00</ele>
      </trkpt>
      <trkpt lat="45.5666861" lon="9.0957783">
        <ele>0.00</ele>
      </trkpt>
      <trkpt lat="45.5667877" lon="9.0957410">
        <ele>0.00</ele>
      </trkpt>
      <trkpt lat="45.5667906" lon="9.0956374">
        <ele>0.00</ele>
      </trkpt>
      <trkpt lat="45.5667906" lon="9.0955503">
        <ele>0.00</ele>
      </trkpt>
      <trkpt lat="45.5669995" lon="9.0954923">
        <ele>0.00</ele>
      </trkpt>
      <trkpt lat="45.5673013" lon="9.0953432">
        <ele>0.00</ele>
      </trkpt>
      <trkpt lat="45.5676698" lon="9.0949453">
        <ele>0.00</ele>
      </trkpt>
      <trkpt lat="45.5678335" lon="9.0947165">
        <ele>0.00</ele>
      </trkpt>
      <trkpt lat="45.5679248" lon="9.0945411">
        <ele>0.00</ele>
      </trkpt>
      <trkpt lat="45.5680539" lon="9.0944782">
        <ele>0.00</ele>
      </trkpt>
      <trkpt lat="45.5683215" lon="9.0941724">
        <ele>0.00</ele>
      </trkpt>
      <trkpt lat="45.5689513" lon="9.0933988">
        <ele>0.00</ele>
      </trkpt>
      <trkpt lat="45.5692598" lon="9.0930588">
        <ele>0.00</ele>
      </trkpt>
      <trkpt lat="45.5694050" lon="9.0928745">
        <ele>0.00</ele>
      </trkpt>
      <trkpt lat="45.5695235" lon="9.0927301">
        <ele>0.00</ele>
      </trkpt>
      <trkpt lat="45.5696792" lon="9.0925536">
        <ele>0.00</ele>
      </trkpt>
      <trkpt lat="45.5697663" lon="9.0923766">
        <ele>0.00</ele>
      </trkpt>
      <trkpt lat="45.5698359" lon="9.0921909">
        <ele>0.00</ele>
      </trkpt>
      <trkpt lat="45.5698883" lon="9.0920013">
        <ele>0.00</ele>
      </trkpt>
      <trkpt lat="45.5698781" lon="9.0917815">
        <ele>0.00</ele>
      </trkpt>
      <trkpt lat="45.5698018" lon="9.0915365">
        <ele>0.00</ele>
      </trkpt>
      <trkpt lat="45.5696888" lon="9.0913232">
        <ele>0.00</ele>
      </trkpt>
      <trkpt lat="45.5696013" lon="9.0910446">
        <ele>0.00</ele>
      </trkpt>
      <trkpt lat="45.5695576" lon="9.0907436">
        <ele>0.00</ele>
      </trkpt>
    </trkseg>
  </trk>
</gpx>
