<?xml version="1.0" encoding="utf-8"?>
<gpx xmlns="http://www.topografix.com/GPX/1/1" xmlns:xsi="http://www.w3.org/2001/XMLSchema-instance" version="1.1" creator="Fametta Run 2026" xsi:schemaLocation="http://www.topografix.com/GPX/1/1 http://www.topografix.com/GPX/1/1/gpx.xsd">
  <wpt lat="45.5635632" lon="9.0880549">
    <name>1 km</name>
  </wpt>
  <wpt lat="45.5563767" lon="9.0893310">
    <name>2 km</name>
  </wpt>
  <wpt lat="45.5541509" lon="9.0982712">
    <name>3 km</name>
  </wpt>
  <wpt lat="45.5554490" lon="9.1010829">
    <name>4 km</name>
  </wpt>
  <wpt lat="45.5600980" lon="9.0980332">
    <name>R 4.6 km</name>
  </wpt>
  <wpt lat="45.5629998" lon="9.1006849">
    <name>5 km</name>
  </wpt>
  <wpt lat="45.5683906" lon="9.0950641">
    <name>6 km</name>
  </wpt>
  <trk>
    <name>Percorso 6.8 km</name>
    <trkseg>
      <trkpt lat="45.5695547" lon="9.0906962">
        <ele>0.00</ele>
      </trkpt>
      <trkpt lat="45.5695336" lon="9.0902799">
        <ele>0.00</ele>
      </trkpt>
      <trkpt lat="45.5694774" lon="9.0898485">
        <ele>0.00</ele>
      </trkpt>
      <trkpt lat="45.5691824" lon="9.0900090">
        <ele>0.00</ele>
      </trkpt>
      <trkpt lat="45.5686522" lon="9.0903252">
        <ele>0.00</ele>
      </trkpt>
      <trkpt lat="45.5681921" lon="9.0906061">
        <ele>0.00</ele>
      </trkpt>
      <trkpt lat="45.5678164" lon="9.0908420">
        <ele>0.00</ele>
      </trkpt>
      <trkpt lat="45.5675811" lon="9.0909373">
        <ele>0.00</ele>
      </trkpt>
      <trkpt lat="45.5674056" lon="9.0910627">
        <ele>0.00</ele>
      </trkpt>
      <trkpt lat="45.5671949" lon="9.0912183">
        <ele>0.00</ele>
      </trkpt>
      <trkpt lat="45.5670865" lon="9.0909841">
        <ele>0.00</ele>
      </trkpt>
      <trkpt lat="45.5669685" lon="9.0906097">
        <ele>0.00</ele>
      </trkpt>
      <trkpt lat="45.5668898" lon="9.0903414">
        <ele>0.00</ele>
      </trkpt>
      <trkpt lat="45.5668374" lon="9.0900481">
        <ele>0.00</ele>
      </trkpt>
      <trkpt lat="45.5667500" lon="9.0894990">
        <ele>0.00</ele>
      </trkpt>
      <trkpt lat="45.5666931" lon="9.0889623">
        <ele>0.00</ele>
      </trkpt>
      <trkpt lat="45.5666275" lon="9.0885130">
        <ele>0.00</ele>
      </trkpt>
      <trkpt lat="45.5664877" lon="9.0876644">
        <ele>0.00</ele>
      </trkpt>
      <trkpt lat="45.5663915" lon="9.0870341">
        <ele>0.00</ele>
      </trkpt>
      <trkpt lat="45.5660857" lon="9.0871403">
        <ele>0.00</ele>
      </trkpt>
      <trkpt lat="45.5652153" lon="9.0873916">
        <ele>0.00</ele>
      </trkpt>
      <trkpt lat="45.5646803" lon="9.0875315">
        <ele>0.00</ele>
      </trkpt>
      <trkpt lat="45.5641452" lon="9.0876621">
        <ele>0.00</ele>
      </trkpt>
      <trkpt lat="45.5640702" lon="9.0877833">
        <ele>0.00</ele>
      </trkpt>
      <trkpt lat="45.5638190" lon="9.0878766">
        <ele>0.00</ele>
      </trkpt>
      <trkpt lat="45.5635319" lon="9.0879652">
        <ele>0.00</ele>
      </trkpt>
      <trkpt lat="45.5631834" lon="9.0880772">
        <ele>0.00</ele>
      </trkpt>
      <trkpt lat="45.5627636" lon="9.0881867">
        <ele>0.00</ele>
      </trkpt>
      <trkpt lat="45.5623937" lon="9.0882961">
        <ele>0.00</ele>
      </trkpt>
      <trkpt lat="45.5622337" lon="9.0883247">
        <ele>0.00</ele>
      </trkpt>
      <trkpt lat="45.5621504" lon="9.0883104">
        <ele>0.00</ele>
      </trkpt>
      <trkpt lat="45.5621238" lon="9.0882295">
        <ele>0.00</ele>
      </trkpt>
      <trkpt lat="45.5620971" lon="9.0880629">
        <ele>0.00</ele>
      </trkpt>
      <trkpt lat="45.5620505" lon="9.0874061">
        <ele>0.00</ele>
      </trkpt>
      <trkpt lat="45.5620338" lon="9.0870825">
        <ele>0.00</ele>
      </trkpt>
      <trkpt lat="45.5619305" lon="9.0868921">
        <ele>0.00</ele>
      </trkpt>
      <trkpt lat="45.5617839" lon="9.0866874">
        <ele>0.00</ele>
      </trkpt>
      <trkpt lat="45.5616972" lon="9.0866541">
        <ele>0.00</ele>
      </trkpt>
      <trkpt lat="45.5615696" lon="9.0866620">
        <ele>0.00</ele>
      </trkpt>
      <trkpt lat="45.5614635" lon="9.0866648">
        <ele>0.00</ele>
      </trkpt>
      <trkpt lat="45.5613764" lon="9.0866458">
        <ele>0.00</ele>
      </trkpt>
      <trkpt lat="45.5612836" lon="9.0866675">
        <ele>0.00</ele>
      </trkpt>
      <trkpt lat="45.5607495" lon="9.0868839">
        <ele>0.00</ele>
      </trkpt>
      <trkpt lat="45.5584908" lon="9.0877240">
        <ele>0.00</ele>
      </trkpt>
      <trkpt lat="45.5563204" lon="9.0885250">
        <ele>0.00</ele>
      </trkpt>
      <trkpt lat="45.5562871" lon="9.0885519">
        <ele>0.00</ele>
      </trkpt>
      <trkpt lat="45.5562871" lon="9.0886340">
        <ele>0.00</ele>
      </trkpt>
      <trkpt lat="45.5562999" lon="9.0888501">
        <ele>0.00</ele>
      </trkpt>
      <trkpt lat="45.5563319" lon="9.0891240">
        <ele>0.00</ele>
      </trkpt>
      <trkpt lat="45.5563511" lon="9.0893645">
        <ele>0.00</ele>
      </trkpt>
      <trkpt lat="45.5564129" lon="9.0899275">
        <ele>0.00</ele>
      </trkpt>
      <trkpt lat="45.5564981" lon="9.0908345">
        <ele>0.00</ele>
      </trkpt>
      <trkpt lat="45.5568655" lon="9.0945865">
        <ele>0.00</ele>
      </trkpt>
      <trkpt lat="45.5568895" lon="9.0948533">
        <ele>0.00</ele>
      </trkpt>
      <trkpt lat="45.5569002" lon="9.0950134">
        <ele>0.00</ele>
      </trkpt>
      <trkpt lat="45.5567320" lon="9.0950172">
        <ele>0.00</ele>
      </trkpt>
      <trkpt lat="45.5564971" lon="9.0949981">
        <ele>0.00</ele>
      </trkpt>
      <trkpt lat="45.5562169" lon="9.0949638">
        <ele>0.00</ele>
      </trkpt>
      <trkpt lat="45.5560674" lon="9.0949599">
        <ele>0.00</ele>
      </trkpt>
      <trkpt lat="45.5559820" lon="9.0950019">
        <ele>0.00</ele>
      </trkpt>
      <trkpt lat="45.5558992" lon="9.0950857">
        <ele>0.00</ele>
      </trkpt>
      <trkpt lat="45.5558565" lon="9.0952191">
        <ele>0.00</ele>
      </trkpt>
      <trkpt lat="45.5558631" lon="9.0953089">
        <ele>0.00</ele>
      </trkpt>
      <trkpt lat="45.5558820" lon="9.0954747">
        <ele>0.00</ele>
      </trkpt>
      <trkpt lat="45.5558820" lon="9.0955711">
        <ele>0.00</ele>
      </trkpt>
      <trkpt lat="45.5558398" lon="9.0956163">
        <ele>0.00</ele>
      </trkpt>
      <trkpt lat="45.5557238" lon="9.0956223">
        <ele>0.00</ele>
      </trkpt>
      <trkpt lat="45.5548798" lon="9.0957005">
        <ele>0.00</ele>
      </trkpt>
      <trkpt lat="45.5548440" lon="9.0957337">
        <ele>0.00</ele>
      </trkpt>
      <trkpt lat="45.5548503" lon="9.0958602">
        <ele>0.00</ele>
      </trkpt>
      <trkpt lat="45.5549260" lon="9.0965020">
        <ele>0.00</ele>
      </trkpt>
      <trkpt lat="45.5548893" lon="9.0965702">
        <ele>0.00</ele>
      </trkpt>
      <trkpt lat="45.5547700" lon="9.0965963">
        <ele>0.00</ele>
      </trkpt>
      <trkpt lat="45.5540717" lon="9.0967526">
        <ele>0.00</ele>
      </trkpt>
      <trkpt lat="45.5540232" lon="9.0967831">
        <ele>0.00</ele>
      </trkpt>
      <trkpt lat="45.5540096" lon="9.0968608">
        <ele>0.00</ele>
      </trkpt>
      <trkpt lat="45.5540251" lon="9.0972131">
        <ele>0.00</ele>
      </trkpt>
      <trkpt lat="45.5540503" lon="9.0979040">
        <ele>0.00</ele>
      </trkpt>
      <trkpt lat="45.5540820" lon="9.0982908">
        <ele>0.00</ele>
      </trkpt>
      <trkpt lat="45.5540750" lon="9.0985053">
        <ele>0.00</ele>
      </trkpt>
      <trkpt lat="45.5540879" lon="9.0988815">
        <ele>0.00</ele>
      </trkpt>
      <trkpt lat="45.5540943" lon="9.0992731">
        <ele>0.00</ele>
      </trkpt>
      <trkpt lat="45.5541071" lon="9.0994413">
        <ele>0.00</ele>
      </trkpt>
      <trkpt lat="45.5541285" lon="9.0995331">
        <ele>0.00</ele>
      </trkpt>
      <trkpt lat="45.5541778" lon="9.0995881">
        <ele>0.00</ele>
      </trkpt>
      <trkpt lat="45.5542720" lon="9.0996402">
        <ele>0.00</ele>
      </trkpt>
      <trkpt lat="45.5544048" lon="9.0996463">
        <ele>0.00</ele>
      </trkpt>
      <trkpt lat="45.5561902" lon="9.0991635">
        <ele>0.00</ele>
      </trkpt>
      <trkpt lat="45.5562340" lon="9.0991820">
        <ele>0.00</ele>
      </trkpt>
      <trkpt lat="45.5562885" lon="9.0991987">
        <ele>0.00</ele>
      </trkpt>
      <trkpt lat="45.5563469" lon="9.0991598">
        <ele>0.00</ele>
      </trkpt>
      <trkpt lat="45.5563741" lon="9.0991042">
        <ele>0.00</ele>
      </trkpt>
      <trkpt lat="45.5565162" lon="9.0990515">
        <ele>0.00</ele>
      </trkpt>
      <trkpt lat="45.5565901" lon="9.0990376">
        <ele>0.00</ele>
      </trkpt>
      <trkpt lat="45.5565920" lon="9.0992210">
        <ele>0.00</ele>
      </trkpt>
      <trkpt lat="45.5565784" lon="9.0994767">
        <ele>0.00</ele>
      </trkpt>
      <trkpt lat="45.5565719" lon="9.0996063">
        <ele>0.00</ele>
      </trkpt>
      <trkpt lat="45.5565027" lon="9.0996237">
        <ele>0.00</ele>
      </trkpt>
      <trkpt lat="45.5562556" lon="9.0996653">
        <ele>0.00</ele>
      </trkpt>
      <trkpt lat="45.5558458" lon="9.0997389">
        <ele>0.00</ele>
      </trkpt>
      <trkpt lat="45.5551036" lon="9.0998380">
        <ele>0.00</ele>
      </trkpt>
      <trkpt lat="45.5546599" lon="9.0998921">
        <ele>0.00</ele>
      </trkpt>
      <trkpt lat="45.5545519" lon="9.0999109">
        <ele>0.00</ele>
      </trkpt>
      <trkpt lat="45.5543510" lon="9.0999725">
        <ele>0.00</ele>
      </trkpt>
      <trkpt lat="45.5540807" lon="9.1000019">
        <ele>0.00</ele>
      </trkpt>
      <trkpt lat="45.5539359" lon="9.1000171">
        <ele>0.00</ele>
      </trkpt>
      <trkpt lat="45.5538036" lon="9.1001567">
        <ele>0.00</ele>
      </trkpt>
      <trkpt lat="45.5537188" lon="9.1003146">
        <ele>0.00</ele>
      </trkpt>
      <trkpt lat="45.5537865" lon="9.1004993">
        <ele>0.00</ele>
      </trkpt>
      <trkpt lat="45.5538730" lon="9.1007409">
        <ele>0.00</ele>
      </trkpt>
      <trkpt lat="45.5539614" lon="9.1009732">
        <ele>0.00</ele>
      </trkpt>
      <trkpt lat="45.5540355" lon="9.1011575">
        <ele>0.00</ele>
      </trkpt>
      <trkpt lat="45.5540493" lon="9.1011902">
        <ele>0.00</ele>
      </trkpt>
      <trkpt lat="45.5540805" lon="9.1012101">
        <ele>0.00</ele>
      </trkpt>
      <trkpt lat="45.5541010" lon="9.1012369">
        <ele>0.00</ele>
      </trkpt>
      <trkpt lat="45.5541147" lon="9.1012698">
        <ele>0.00</ele>
      </trkpt>
      <trkpt lat="45.5541370" lon="9.1013339">
        <ele>0.00</ele>
      </trkpt>
      <trkpt lat="45.5541672" lon="9.1014059">
        <ele>0.00</ele>
      </trkpt>
      <trkpt lat="45.5546058" lon="9.1012303">
        <ele>0.00</ele>
      </trkpt>
      <trkpt lat="45.5550085" lon="9.1010786">
        <ele>0.00</ele>
      </trkpt>
      <trkpt lat="45.5556446" lon="9.1008338">
        <ele>0.00</ele>
      </trkpt>
      <trkpt lat="45.5559204" lon="9.1007200">
        <ele>0.00</ele>
      </trkpt>
      <trkpt lat="45.5562017" lon="9.1006057">
        <ele>0.00</ele>
      </trkpt>
      <trkpt lat="45.5563281" lon="9.1005710">
        <ele>0.00</ele>
      </trkpt>
      <trkpt lat="45.5564316" lon="9.1005242">
        <ele>0.00</ele>
      </trkpt>
      <trkpt lat="45.5564890" lon="9.1005019">
        <ele>0.00</ele>
      </trkpt>
      <trkpt lat="45.5565407" lon="9.1004183">
        <ele>0.00</ele>
      </trkpt>
      <trkpt lat="45.5565711" lon="9.1003260">
        <ele>0.00</ele>
      </trkpt>
      <trkpt lat="45.5565765" lon="9.1000881">
        <ele>0.00</ele>
      </trkpt>
      <trkpt lat="45.5565800" lon="9.0997895">
        <ele>0.00</ele>
      </trkpt>
      <trkpt lat="45.5565934" lon="9.0996729">
        <ele>0.00</ele>
      </trkpt>
      <trkpt lat="45.5566120" lon="9.0995865">
        <ele>0.00</ele>
      </trkpt>
      <trkpt lat="45.5566776" lon="9.0995434">
        <ele>0.00</ele>
      </trkpt>
      <trkpt lat="45.5566796" lon="9.0994517">
        <ele>0.00</ele>
      </trkpt>
      <trkpt lat="45.5566874" lon="9.0993433">
        <ele>0.00</ele>
      </trkpt>
      <trkpt lat="45.5566952" lon="9.0992627">
        <ele>0.00</ele>
      </trkpt>
      <trkpt lat="45.5567244" lon="9.0992044">
        <ele>0.00</ele>
      </trkpt>
      <trkpt lat="45.5567828" lon="9.0991488">
        <ele>0.00</ele>
      </trkpt>
      <trkpt lat="45.5568587" lon="9.0991210">
        <ele>0.00</ele>
      </trkpt>
      <trkpt lat="45.5587481" lon="9.0984954">
        <ele>0.00</ele>
      </trkpt>
      <trkpt lat="45.5590728" lon="9.0983643">
        <ele>0.00</ele>
      </trkpt>
      <trkpt lat="45.5593712" lon="9.0982332">
        <ele>0.00</ele>
      </trkpt>
      <trkpt lat="45.5596991" lon="9.0981161">
        <ele>0.00</ele>
      </trkpt>
      <trkpt lat="45.5597984" lon="9.0980789">
        <ele>0.00</ele>
      </trkpt>
      <trkpt lat="45.5598716" lon="9.0980462">
        <ele>0.00</ele>
      </trkpt>
      <trkpt lat="45.5599448" lon="9.0980299">
        <ele>0.00</ele>
      </trkpt>
      <trkpt lat="45.5601025" lon="9.0981606">
        <ele>0.00</ele>
      </trkpt>
      <trkpt lat="45.5602512" lon="9.0982684">
        <ele>0.00</ele>
      </trkpt>
      <trkpt lat="45.5606765" lon="9.0985787">
        <ele>0.00</ele>
      </trkpt>
      <trkpt lat="45.5610446" lon="9.0988466">
        <ele>0.00</ele>
      </trkpt>
      <trkpt lat="45.5612870" lon="9.0990492">
        <ele>0.00</ele>
      </trkpt>
      <trkpt lat="45.5614410" lon="9.0991645">
        <ele>0.00</ele>
      </trkpt>
      <trkpt lat="45.5615879" lon="9.0992733">
        <ele>0.00</ele>
      </trkpt>
      <trkpt lat="45.5617565" lon="9.0994015">
        <ele>0.00</ele>
      </trkpt>
      <trkpt lat="45.5619442" lon="9.0995376">
        <ele>0.00</ele>
      </trkpt>
      <trkpt lat="45.5620422" lon="9.0996153">
        <ele>0.00</ele>
      </trkpt>
      <trkpt lat="45.5620911" lon="9.0996153">
        <ele>0.00</ele>
      </trkpt>
      <trkpt lat="45.5621302" lon="9.0996313">
        <ele>0.00</ele>
      </trkpt>
      <trkpt lat="45.5622440" lon="9.0997743">
        <ele>0.00</ele>
      </trkpt>
      <trkpt lat="45.5623568" lon="9.0999229">
        <ele>0.00</ele>
      </trkpt>
      <trkpt lat="45.5624559" lon="9.1000658">
        <ele>0.00</ele>
      </trkpt>
      <trkpt lat="45.5625432" lon="9.1001976">
        <ele>0.00</ele>
      </trkpt>
      <trkpt lat="45.5626197" lon="9.1003097">
        <ele>0.00</ele>
      </trkpt>
      <trkpt lat="45.5627158" lon="9.1004821">
        <ele>0.00</ele>
      </trkpt>
      <trkpt lat="45.5627946" lon="9.1006014">
        <ele>0.00</ele>
      </trkpt>
      <trkpt lat="45.5628856" lon="9.1007659">
        <ele>0.00</ele>
      </trkpt>
      <trkpt lat="45.5629789" lon="9.1009058">
        <ele>0.00</ele>
      </trkpt>
      <trkpt lat="45.5630377" lon="9.1010128">
        <ele>0.00</ele>
      </trkpt>
      <trkpt lat="45.5630929" lon="9.1011214">
        <ele>0.00</ele>
      </trkpt>
      <trkpt lat="45.5631275" lon="9.1012563">
        <ele>0.00</ele>
      </trkpt>
      <trkpt lat="45.5631321" lon="9.1014044">
        <ele>0.00</ele>
      </trkpt>
      <trkpt lat="45.5631102" lon="9.1015821">
        <ele>0.00</ele>
      </trkpt>
      <trkpt lat="45.5630560" lon="9.1018569">
        <ele>0.00</ele>
      </trkpt>
      <trkpt lat="45.5630260" lon="9.1019781">
        <ele>0.00</ele>
      </trkpt>
      <trkpt lat="45.5630060" lon="9.1021080">
        <ele>0.00</ele>
      </trkpt>
      <trkpt lat="45.5629823" lon="9.1022444">
        <ele>0.00</ele>
      </trkpt>
      <trkpt lat="45.5629759" lon="9.1023301">
        <ele>0.00</ele>
      </trkpt>
      <trkpt lat="45.5629705" lon="9.1024185">
        <ele>0.00</ele>
      </trkpt>
      <trkpt lat="45.5630041" lon="9.1024250">
        <ele>0.00</ele>
      </trkpt>
      <trkpt lat="45.5630259" lon="9.1023951">
        <ele>0.00</ele>
      </trkpt>
      <trkpt lat="45.5630787" lon="9.1022808">
        <ele>0.00</ele>
      </trkpt>
      <trkpt lat="45.5631433" lon="9.1021055">
        <ele>0.00</ele>
      </trkpt>
      <trkpt lat="45.5632770" lon="9.1016846">
        <ele>0.00</ele>
      </trkpt>
      <trkpt lat="45.5633794" lon="9.1013348">
        <ele>0.00</ele>
      </trkpt>
      <trkpt lat="45.5634422" lon="9.1010657">
        <ele>0.00</ele>
      </trkpt>
      <trkpt lat="45.5634877" lon="9.1008886">
        <ele>0.00</ele>
      </trkpt>
      <trkpt lat="45.5635301" lon="9.1007855">
        <ele>0.00</ele>
      </trkpt>
      <trkpt lat="45.5635772" lon="9.1007317">
        <ele>0.00</ele>
      </trkpt>
      <trkpt lat="45.5636714" lon="9.1006891">
        <ele>0.00</ele>
      </trkpt>
      <trkpt lat="45.5637359" lon="9.1006614">
        <ele>0.00</ele>
      </trkpt>
      <trkpt lat="45.5637837" lon="9.1006177">
        <ele>0.00</ele>
      </trkpt>
      <trkpt lat="45.5638392" lon="9.1005166">
        <ele>0.00</ele>
      </trkpt>
      <trkpt lat="45.5639311" lon="9.1003117">
        <ele>0.00</ele>
      </trkpt>
      <trkpt lat="45.5640095" lon="9.1001342">
        <ele>0.00</ele>
      </trkpt>
      <trkpt lat="45.5641224" lon="9.1000085">
        <ele>0.00</ele>
      </trkpt>
      <trkpt lat="45.5643921" lon="9.0998146">
        <ele>0.00</ele>
      </trkpt>
      <trkpt lat="45.5645853" lon="9.0996234">
        <ele>0.00</ele>
      </trkpt>
      <trkpt lat="45.5647250" lon="9.0995223">
        <ele>0.00</ele>
      </trkpt>
      <trkpt lat="45.5649158" lon="9.0994263">
        <ele>0.00</ele>
      </trkpt>
      <trkpt lat="45.5651138" lon="9.0992966">
        <ele>0.00</ele>
      </trkpt>
      <trkpt lat="45.5651811" lon="9.0992318">
        <ele>0.00</ele>
      </trkpt>
      <trkpt lat="45.5652283" lon="9.0991409">
        <ele>0.00</ele>
      </trkpt>
      <trkpt lat="45.5652429" lon="9.0990242">
        <ele>0.00</ele>
      </trkpt>
      <trkpt lat="45.5652901" lon="9.0988607">
        <ele>0.00</ele>
      </trkpt>
      <trkpt lat="45.5653464" lon="9.0988036">
        <ele>0.00</ele>
      </trkpt>
      <trkpt lat="45.5654518" lon="9.0987569">
        <ele>0.00</ele>
      </trkpt>
      <trkpt lat="45.5655554" lon="9.0987154">
        <ele>0.00</ele>
      </trkpt>
      <trkpt lat="45.5656647" lon="9.0986174">
        <ele>0.00</ele>
      </trkpt>
      <trkpt lat="45.5657957" lon="9.0984957">
        <ele>0.00</ele>
      </trkpt>
      <trkpt lat="45.5658788" lon="9.0984271">
        <ele>0.00</ele>
      </trkpt>
      <trkpt lat="45.5659115" lon="9.0983428">
        <ele>0.00</ele>
      </trkpt>
      <trkpt lat="45.5659487" lon="9.0982461">
        <ele>0.00</ele>
      </trkpt>
      <trkpt lat="45.5659793" lon="9.0981276">
        <ele>0.00</ele>
      </trkpt>
      <trkpt lat="45.5659968" lon="9.0979840">
        <ele>0.00</ele>
      </trkpt>
      <trkpt lat="45.5660536" lon="9.0978436">
        <ele>0.00</ele>
      </trkpt>
      <trkpt lat="45.5661868" lon="9.0976814">
        <ele>0.00</ele>
      </trkpt>
      <trkpt lat="45.5662873" lon="9.0975098">
        <ele>0.00</ele>
      </trkpt>
      <trkpt lat="45.5664097" lon="9.0972571">
        <ele>0.00</ele>
      </trkpt>
      <trkpt lat="45.5665086" lon="9.0970654">
        <ele>0.00</ele>
      </trkpt>
      <trkpt lat="45.5665980" lon="9.0968243">
        <ele>0.00</ele>
      </trkpt>
      <trkpt lat="45.5666477" lon="9.0966825">
        <ele>0.00</ele>
      </trkpt>
      <trkpt lat="45.5669555" lon="9.0963610">
        <ele>0.00</ele>
      </trkpt>
      <trkpt lat="45.5676010" lon="9.0956567">
        <ele>0.00</ele>
      </trkpt>
      <trkpt lat="45.5681372" lon="9.0950893">
        <ele>0.00</ele>
      </trkpt>
      <trkpt lat="45.5686039" lon="9.0945882">
        <ele>0.00</ele>
      </trkpt>
      <trkpt lat="45.5689487" lon="9.0941794">
        <ele>0.00</ele>
      </trkpt>
      <trkpt lat="45.5694893" lon="9.0935850">
        <ele>0.00</ele>
      </trkpt>
      <trkpt lat="45.5698876" lon="9.0930821">
        <ele>0.00</ele>
      </trkpt>
      <trkpt lat="45.5702789" lon="9.0926198">
        <ele>0.00</ele>
      </trkpt>
      <trkpt lat="45.5704851" lon="9.0923709">
        <ele>0.00</ele>
      </trkpt>
      <trkpt lat="45.5705669" lon="9.0922693">
        <ele>0.00</ele>
      </trkpt>
      <trkpt lat="45.5706004" lon="9.0922256">
        <ele>0.00</ele>
      </trkpt>
      <trkpt lat="45.5706146" lon="9.0921622">
        <ele>0.00</ele>
      </trkpt>
      <trkpt lat="45.5706518" lon="9.0920964">
        <ele>0.00</ele>
      </trkpt>
      <trkpt lat="45.5707210" lon="9.0920128">
        <ele>0.00</ele>
      </trkpt>
      <trkpt lat="45.5708291" lon="9.0919165">
        <ele>0.00</ele>
      </trkpt>
      <trkpt lat="45.5709497" lon="9.0917519">
        <ele>0.00</ele>
      </trkpt>
      <trkpt lat="45.5710496" lon="9.0916435">
        <ele>0.00</ele>
      </trkpt>
      <trkpt lat="45.5711234" lon="9.0915627">
        <ele>0.00</ele>
      </trkpt>
      <trkpt lat="45.5711714" lon="9.0914892">
        <ele>0.00</ele>
      </trkpt>
      <trkpt lat="45.5712142" lon="9.0914231">
        <ele>0.00</ele>
      </trkpt>
      <trkpt lat="45.5713496" lon="9.0912713">
        <ele>0.00</ele>
      </trkpt>
      <trkpt lat="45.5712468" lon="9.0910827">
        <ele>0.00</ele>
      </trkpt>
      <trkpt lat="45.5711302" lon="9.0908795">
        <ele>0.00</ele>
      </trkpt>
      <trkpt lat="45.5711062" lon="9.0908427">
        <ele>0.00</ele>
      </trkpt>
      <trkpt lat="45.5712907" lon="9.0906247">
        <ele>0.00</ele>
      </trkpt>
      <trkpt lat="45.5712773" lon="9.0905998">
        <ele>0.00</ele>
      </trkpt>
      <trkpt lat="45.5712094" lon="9.0906735">
        <ele>0.00</ele>
      </trkpt>
      <trkpt lat="45.5711377" lon="9.0905650">
        <ele>0.00</ele>
      </trkpt>
      <trkpt lat="45.5708495" lon="9.0909021">
        <ele>0.00</ele>
      </trkpt>
      <trkpt lat="45.5706333" lon="9.0904866">
        <ele>0.00</ele>
      </trkpt>
      <trkpt lat="45.5703031" lon="9.0908598">
        <ele>0.00</ele>
      </trkpt>
      <trkpt lat="45.5701775" lon="9.0909885">
        <ele>0.00</ele>
      </trkpt>
      <trkpt lat="45.5700491" lon="9.0911288">
        <ele>0.00</ele>
      </trkpt>
      <trkpt lat="45.5699258" lon="9.0912238">
        <ele>0.00</ele>
      </trkpt>
      <trkpt lat="45.5697980" lon="9.0913018">
        <ele>0.00</ele>
      </trkpt>
      <trkpt lat="45.5697070" lon="9.0913221">
        <ele>0.00</ele>
      </trkpt>
      <trkpt lat="45.5696537" lon="9.0912470">
        <ele>0.00</ele>
      </trkpt>
      <trkpt lat="45.5696046" lon="9.0911076">
        <ele>0.00</ele>
      </trkpt>
      <trkpt lat="45.5695710" lon="9.0909440">
        <ele>0.00</ele>
      </trkpt>
      <trkpt lat="45.5695563" lon="9.0907326">
        <ele>0.00</ele>
      </trkpt>
    </trkseg>
  </trk>
</gpx>
