<?xml version="1.0" encoding="utf-8"?>
<gpx xmlns="http://www.topografix.com/GPX/1/1" xmlns:xsi="http://www.w3.org/2001/XMLSchema-instance" version="1.1" creator="Fametta Run 2026" xsi:schemaLocation="http://www.topografix.com/GPX/1/1 http://www.topografix.com/GPX/1/1/gpx.xsd">
  <wpt lat="45.5635632" lon="9.0880549">
    <name>1 km</name>
  </wpt>
  <wpt lat="45.5563767" lon="9.0893310">
    <name>2 km</name>
  </wpt>
  <wpt lat="45.5541509" lon="9.0982712">
    <name>3 km</name>
  </wpt>
  <wpt lat="45.5554475" lon="9.1010778">
    <name>4 km</name>
  </wpt>
  <wpt lat="45.5600980" lon="9.0980332">
    <name>R 4.6 km</name>
  </wpt>
  <wpt lat="45.5630032" lon="9.1006896">
    <name>5 km</name>
  </wpt>
  <wpt lat="45.5683976" lon="9.0950689">
    <name>6 km</name>
  </wpt>
  <wpt lat="45.5722073" lon="9.1002516">
    <name>7 km</name>
  </wpt>
  <wpt lat="45.5759366" lon="9.1089105">
    <name>8 km</name>
  </wpt>
  <wpt lat="45.5817066" lon="9.1159641">
    <name>9 km</name>
  </wpt>
  <wpt lat="45.5876399" lon="9.1181272">
    <name>10 km</name>
  </wpt>
  <wpt lat="45.5886237" lon="9.1094772">
    <name>R 10.8 km</name>
  </wpt>
  <wpt lat="45.5896119" lon="9.1069293">
    <name>11 km</name>
  </wpt>
  <wpt lat="45.5969423" lon="9.1039304">
    <name>12 km</name>
  </wpt>
  <wpt lat="45.6020852" lon="9.0962431">
    <name>13 km</name>
  </wpt>
  <wpt lat="45.6049761" lon="9.0874093">
    <name>14 km</name>
  </wpt>
  <wpt lat="45.5968334" lon="9.0859484">
    <name>15 km</name>
  </wpt>
  <wpt lat="45.5932128" lon="9.0926054">
    <name>16 km</name>
  </wpt>
  <wpt lat="45.5888566" lon="9.0911715">
    <name>R 16.6 km</name>
  </wpt>
  <wpt lat="45.5852050" lon="9.0903840">
    <name>17 km</name>
  </wpt>
  <wpt lat="45.5791413" lon="9.0937803">
    <name>18 km</name>
  </wpt>
  <wpt lat="45.5724482" lon="9.0934508">
    <name>19 km</name>
  </wpt>
  <trk>
    <name>Percorso 19.5 km</name>
    <trkseg>
      <trkpt lat="45.5695547" lon="9.0906962">
        <ele>0.00</ele>
      </trkpt>
      <trkpt lat="45.5695336" lon="9.0902799">
        <ele>0.00</ele>
      </trkpt>
      <trkpt lat="45.5694774" lon="9.0898485">
        <ele>0.00</ele>
      </trkpt>
      <trkpt lat="45.5691824" lon="9.0900090">
        <ele>0.00</ele>
      </trkpt>
      <trkpt lat="45.5686522" lon="9.0903252">
        <ele>0.00</ele>
      </trkpt>
      <trkpt lat="45.5681921" lon="9.0906061">
        <ele>0.00</ele>
      </trkpt>
      <trkpt lat="45.5678164" lon="9.0908420">
        <ele>0.00</ele>
      </trkpt>
      <trkpt lat="45.5675811" lon="9.0909373">
        <ele>0.00</ele>
      </trkpt>
      <trkpt lat="45.5674056" lon="9.0910627">
        <ele>0.00</ele>
      </trkpt>
      <trkpt lat="45.5671949" lon="9.0912183">
        <ele>0.00</ele>
      </trkpt>
      <trkpt lat="45.5670865" lon="9.0909841">
        <ele>0.00</ele>
      </trkpt>
      <trkpt lat="45.5669685" lon="9.0906097">
        <ele>0.00</ele>
      </trkpt>
      <trkpt lat="45.5668898" lon="9.0903414">
        <ele>0.00</ele>
      </trkpt>
      <trkpt lat="45.5668374" lon="9.0900481">
        <ele>0.00</ele>
      </trkpt>
      <trkpt lat="45.5667500" lon="9.0894990">
        <ele>0.00</ele>
      </trkpt>
      <trkpt lat="45.5666931" lon="9.0889623">
        <ele>0.00</ele>
      </trkpt>
      <trkpt lat="45.5666275" lon="9.0885130">
        <ele>0.00</ele>
      </trkpt>
      <trkpt lat="45.5664877" lon="9.0876644">
        <ele>0.00</ele>
      </trkpt>
      <trkpt lat="45.5663915" lon="9.0870341">
        <ele>0.00</ele>
      </trkpt>
      <trkpt lat="45.5660857" lon="9.0871403">
        <ele>0.00</ele>
      </trkpt>
      <trkpt lat="45.5652153" lon="9.0873916">
        <ele>0.00</ele>
      </trkpt>
      <trkpt lat="45.5646803" lon="9.0875315">
        <ele>0.00</ele>
      </trkpt>
      <trkpt lat="45.5641452" lon="9.0876621">
        <ele>0.00</ele>
      </trkpt>
      <trkpt lat="45.5640702" lon="9.0877833">
        <ele>0.00</ele>
      </trkpt>
      <trkpt lat="45.5638190" lon="9.0878766">
        <ele>0.00</ele>
      </trkpt>
      <trkpt lat="45.5635319" lon="9.0879652">
        <ele>0.00</ele>
      </trkpt>
      <trkpt lat="45.5631834" lon="9.0880772">
        <ele>0.00</ele>
      </trkpt>
      <trkpt lat="45.5627636" lon="9.0881867">
        <ele>0.00</ele>
      </trkpt>
      <trkpt lat="45.5623937" lon="9.0882961">
        <ele>0.00</ele>
      </trkpt>
      <trkpt lat="45.5622337" lon="9.0883247">
        <ele>0.00</ele>
      </trkpt>
      <trkpt lat="45.5621504" lon="9.0883104">
        <ele>0.00</ele>
      </trkpt>
      <trkpt lat="45.5621238" lon="9.0882295">
        <ele>0.00</ele>
      </trkpt>
      <trkpt lat="45.5620971" lon="9.0880629">
        <ele>0.00</ele>
      </trkpt>
      <trkpt lat="45.5620505" lon="9.0874061">
        <ele>0.00</ele>
      </trkpt>
      <trkpt lat="45.5620338" lon="9.0870825">
        <ele>0.00</ele>
      </trkpt>
      <trkpt lat="45.5619305" lon="9.0868921">
        <ele>0.00</ele>
      </trkpt>
      <trkpt lat="45.5617839" lon="9.0866874">
        <ele>0.00</ele>
      </trkpt>
      <trkpt lat="45.5616972" lon="9.0866541">
        <ele>0.00</ele>
      </trkpt>
      <trkpt lat="45.5615696" lon="9.0866620">
        <ele>0.00</ele>
      </trkpt>
      <trkpt lat="45.5614635" lon="9.0866648">
        <ele>0.00</ele>
      </trkpt>
      <trkpt lat="45.5613764" lon="9.0866458">
        <ele>0.00</ele>
      </trkpt>
      <trkpt lat="45.5612836" lon="9.0866675">
        <ele>0.00</ele>
      </trkpt>
      <trkpt lat="45.5607495" lon="9.0868839">
        <ele>0.00</ele>
      </trkpt>
      <trkpt lat="45.5584908" lon="9.0877240">
        <ele>0.00</ele>
      </trkpt>
      <trkpt lat="45.5563204" lon="9.0885250">
        <ele>0.00</ele>
      </trkpt>
      <trkpt lat="45.5562871" lon="9.0885519">
        <ele>0.00</ele>
      </trkpt>
      <trkpt lat="45.5562871" lon="9.0886340">
        <ele>0.00</ele>
      </trkpt>
      <trkpt lat="45.5562999" lon="9.0888501">
        <ele>0.00</ele>
      </trkpt>
      <trkpt lat="45.5563319" lon="9.0891240">
        <ele>0.00</ele>
      </trkpt>
      <trkpt lat="45.5563511" lon="9.0893645">
        <ele>0.00</ele>
      </trkpt>
      <trkpt lat="45.5564129" lon="9.0899275">
        <ele>0.00</ele>
      </trkpt>
      <trkpt lat="45.5564981" lon="9.0908345">
        <ele>0.00</ele>
      </trkpt>
      <trkpt lat="45.5568655" lon="9.0945865">
        <ele>0.00</ele>
      </trkpt>
      <trkpt lat="45.5568895" lon="9.0948533">
        <ele>0.00</ele>
      </trkpt>
      <trkpt lat="45.5569002" lon="9.0950134">
        <ele>0.00</ele>
      </trkpt>
      <trkpt lat="45.5567320" lon="9.0950172">
        <ele>0.00</ele>
      </trkpt>
      <trkpt lat="45.5564971" lon="9.0949981">
        <ele>0.00</ele>
      </trkpt>
      <trkpt lat="45.5562169" lon="9.0949638">
        <ele>0.00</ele>
      </trkpt>
      <trkpt lat="45.5560674" lon="9.0949599">
        <ele>0.00</ele>
      </trkpt>
      <trkpt lat="45.5559820" lon="9.0950019">
        <ele>0.00</ele>
      </trkpt>
      <trkpt lat="45.5558992" lon="9.0950857">
        <ele>0.00</ele>
      </trkpt>
      <trkpt lat="45.5558565" lon="9.0952191">
        <ele>0.00</ele>
      </trkpt>
      <trkpt lat="45.5558631" lon="9.0953089">
        <ele>0.00</ele>
      </trkpt>
      <trkpt lat="45.5558820" lon="9.0954747">
        <ele>0.00</ele>
      </trkpt>
      <trkpt lat="45.5558820" lon="9.0955711">
        <ele>0.00</ele>
      </trkpt>
      <trkpt lat="45.5558398" lon="9.0956163">
        <ele>0.00</ele>
      </trkpt>
      <trkpt lat="45.5557238" lon="9.0956223">
        <ele>0.00</ele>
      </trkpt>
      <trkpt lat="45.5548798" lon="9.0957005">
        <ele>0.00</ele>
      </trkpt>
      <trkpt lat="45.5548440" lon="9.0957337">
        <ele>0.00</ele>
      </trkpt>
      <trkpt lat="45.5548503" lon="9.0958602">
        <ele>0.00</ele>
      </trkpt>
      <trkpt lat="45.5549260" lon="9.0965020">
        <ele>0.00</ele>
      </trkpt>
      <trkpt lat="45.5548893" lon="9.0965702">
        <ele>0.00</ele>
      </trkpt>
      <trkpt lat="45.5547700" lon="9.0965963">
        <ele>0.00</ele>
      </trkpt>
      <trkpt lat="45.5540717" lon="9.0967526">
        <ele>0.00</ele>
      </trkpt>
      <trkpt lat="45.5540232" lon="9.0967831">
        <ele>0.00</ele>
      </trkpt>
      <trkpt lat="45.5540096" lon="9.0968608">
        <ele>0.00</ele>
      </trkpt>
      <trkpt lat="45.5540251" lon="9.0972131">
        <ele>0.00</ele>
      </trkpt>
      <trkpt lat="45.5540503" lon="9.0979040">
        <ele>0.00</ele>
      </trkpt>
      <trkpt lat="45.5540820" lon="9.0982908">
        <ele>0.00</ele>
      </trkpt>
      <trkpt lat="45.5540750" lon="9.0985053">
        <ele>0.00</ele>
      </trkpt>
      <trkpt lat="45.5540879" lon="9.0988815">
        <ele>0.00</ele>
      </trkpt>
      <trkpt lat="45.5540943" lon="9.0992731">
        <ele>0.00</ele>
      </trkpt>
      <trkpt lat="45.5541071" lon="9.0994413">
        <ele>0.00</ele>
      </trkpt>
      <trkpt lat="45.5541285" lon="9.0995331">
        <ele>0.00</ele>
      </trkpt>
      <trkpt lat="45.5541778" lon="9.0995881">
        <ele>0.00</ele>
      </trkpt>
      <trkpt lat="45.5542720" lon="9.0996402">
        <ele>0.00</ele>
      </trkpt>
      <trkpt lat="45.5544048" lon="9.0996463">
        <ele>0.00</ele>
      </trkpt>
      <trkpt lat="45.5561902" lon="9.0991635">
        <ele>0.00</ele>
      </trkpt>
      <trkpt lat="45.5562340" lon="9.0991820">
        <ele>0.00</ele>
      </trkpt>
      <trkpt lat="45.5562885" lon="9.0991987">
        <ele>0.00</ele>
      </trkpt>
      <trkpt lat="45.5563469" lon="9.0991598">
        <ele>0.00</ele>
      </trkpt>
      <trkpt lat="45.5563741" lon="9.0991042">
        <ele>0.00</ele>
      </trkpt>
      <trkpt lat="45.5565162" lon="9.0990515">
        <ele>0.00</ele>
      </trkpt>
      <trkpt lat="45.5565901" lon="9.0990376">
        <ele>0.00</ele>
      </trkpt>
      <trkpt lat="45.5565920" lon="9.0992210">
        <ele>0.00</ele>
      </trkpt>
      <trkpt lat="45.5565784" lon="9.0994767">
        <ele>0.00</ele>
      </trkpt>
      <trkpt lat="45.5565726" lon="9.0996129">
        <ele>0.00</ele>
      </trkpt>
      <trkpt lat="45.5564973" lon="9.0996309">
        <ele>0.00</ele>
      </trkpt>
      <trkpt lat="45.5561238" lon="9.0996854">
        <ele>0.00</ele>
      </trkpt>
      <trkpt lat="45.5557033" lon="9.0997521">
        <ele>0.00</ele>
      </trkpt>
      <trkpt lat="45.5552723" lon="9.0998256">
        <ele>0.00</ele>
      </trkpt>
      <trkpt lat="45.5548721" lon="9.0998800">
        <ele>0.00</ele>
      </trkpt>
      <trkpt lat="45.5545597" lon="9.0999042">
        <ele>0.00</ele>
      </trkpt>
      <trkpt lat="45.5544466" lon="9.0999557">
        <ele>0.00</ele>
      </trkpt>
      <trkpt lat="45.5539187" lon="9.1000290">
        <ele>0.00</ele>
      </trkpt>
      <trkpt lat="45.5537160" lon="9.1002898">
        <ele>0.00</ele>
      </trkpt>
      <trkpt lat="45.5539039" lon="9.1008491">
        <ele>0.00</ele>
      </trkpt>
      <trkpt lat="45.5540534" lon="9.1011672">
        <ele>0.00</ele>
      </trkpt>
      <trkpt lat="45.5541289" lon="9.1013041">
        <ele>0.00</ele>
      </trkpt>
      <trkpt lat="45.5541944" lon="9.1014151">
        <ele>0.00</ele>
      </trkpt>
      <trkpt lat="45.5550424" lon="9.1010623">
        <ele>0.00</ele>
      </trkpt>
      <trkpt lat="45.5556707" lon="9.1008058">
        <ele>0.00</ele>
      </trkpt>
      <trkpt lat="45.5559537" lon="9.1007052">
        <ele>0.00</ele>
      </trkpt>
      <trkpt lat="45.5562479" lon="9.1005912">
        <ele>0.00</ele>
      </trkpt>
      <trkpt lat="45.5564411" lon="9.1005245">
        <ele>0.00</ele>
      </trkpt>
      <trkpt lat="45.5565380" lon="9.1004231">
        <ele>0.00</ele>
      </trkpt>
      <trkpt lat="45.5565757" lon="9.1003323">
        <ele>0.00</ele>
      </trkpt>
      <trkpt lat="45.5565859" lon="9.0999710">
        <ele>0.00</ele>
      </trkpt>
      <trkpt lat="45.5566041" lon="9.0996365">
        <ele>0.00</ele>
      </trkpt>
      <trkpt lat="45.5566426" lon="9.0996018">
        <ele>0.00</ele>
      </trkpt>
      <trkpt lat="45.5566776" lon="9.0995434">
        <ele>0.00</ele>
      </trkpt>
      <trkpt lat="45.5566796" lon="9.0994517">
        <ele>0.00</ele>
      </trkpt>
      <trkpt lat="45.5566874" lon="9.0993433">
        <ele>0.00</ele>
      </trkpt>
      <trkpt lat="45.5566952" lon="9.0992627">
        <ele>0.00</ele>
      </trkpt>
      <trkpt lat="45.5567244" lon="9.0992044">
        <ele>0.00</ele>
      </trkpt>
      <trkpt lat="45.5567828" lon="9.0991488">
        <ele>0.00</ele>
      </trkpt>
      <trkpt lat="45.5568587" lon="9.0991210">
        <ele>0.00</ele>
      </trkpt>
      <trkpt lat="45.5587481" lon="9.0984954">
        <ele>0.00</ele>
      </trkpt>
      <trkpt lat="45.5590728" lon="9.0983643">
        <ele>0.00</ele>
      </trkpt>
      <trkpt lat="45.5593712" lon="9.0982332">
        <ele>0.00</ele>
      </trkpt>
      <trkpt lat="45.5596991" lon="9.0981161">
        <ele>0.00</ele>
      </trkpt>
      <trkpt lat="45.5597984" lon="9.0980789">
        <ele>0.00</ele>
      </trkpt>
      <trkpt lat="45.5598716" lon="9.0980462">
        <ele>0.00</ele>
      </trkpt>
      <trkpt lat="45.5599448" lon="9.0980299">
        <ele>0.00</ele>
      </trkpt>
      <trkpt lat="45.5601025" lon="9.0981606">
        <ele>0.00</ele>
      </trkpt>
      <trkpt lat="45.5602512" lon="9.0982684">
        <ele>0.00</ele>
      </trkpt>
      <trkpt lat="45.5606765" lon="9.0985787">
        <ele>0.00</ele>
      </trkpt>
      <trkpt lat="45.5610446" lon="9.0988466">
        <ele>0.00</ele>
      </trkpt>
      <trkpt lat="45.5612870" lon="9.0990492">
        <ele>0.00</ele>
      </trkpt>
      <trkpt lat="45.5614410" lon="9.0991645">
        <ele>0.00</ele>
      </trkpt>
      <trkpt lat="45.5615879" lon="9.0992733">
        <ele>0.00</ele>
      </trkpt>
      <trkpt lat="45.5617565" lon="9.0994015">
        <ele>0.00</ele>
      </trkpt>
      <trkpt lat="45.5619442" lon="9.0995376">
        <ele>0.00</ele>
      </trkpt>
      <trkpt lat="45.5620422" lon="9.0996153">
        <ele>0.00</ele>
      </trkpt>
      <trkpt lat="45.5620911" lon="9.0996153">
        <ele>0.00</ele>
      </trkpt>
      <trkpt lat="45.5621302" lon="9.0996313">
        <ele>0.00</ele>
      </trkpt>
      <trkpt lat="45.5622440" lon="9.0997743">
        <ele>0.00</ele>
      </trkpt>
      <trkpt lat="45.5623568" lon="9.0999229">
        <ele>0.00</ele>
      </trkpt>
      <trkpt lat="45.5624559" lon="9.1000658">
        <ele>0.00</ele>
      </trkpt>
      <trkpt lat="45.5625432" lon="9.1001976">
        <ele>0.00</ele>
      </trkpt>
      <trkpt lat="45.5626197" lon="9.1003097">
        <ele>0.00</ele>
      </trkpt>
      <trkpt lat="45.5627158" lon="9.1004821">
        <ele>0.00</ele>
      </trkpt>
      <trkpt lat="45.5627946" lon="9.1006014">
        <ele>0.00</ele>
      </trkpt>
      <trkpt lat="45.5628856" lon="9.1007659">
        <ele>0.00</ele>
      </trkpt>
      <trkpt lat="45.5629789" lon="9.1009058">
        <ele>0.00</ele>
      </trkpt>
      <trkpt lat="45.5630377" lon="9.1010128">
        <ele>0.00</ele>
      </trkpt>
      <trkpt lat="45.5630929" lon="9.1011214">
        <ele>0.00</ele>
      </trkpt>
      <trkpt lat="45.5631275" lon="9.1012563">
        <ele>0.00</ele>
      </trkpt>
      <trkpt lat="45.5631321" lon="9.1014044">
        <ele>0.00</ele>
      </trkpt>
      <trkpt lat="45.5631102" lon="9.1015821">
        <ele>0.00</ele>
      </trkpt>
      <trkpt lat="45.5630560" lon="9.1018569">
        <ele>0.00</ele>
      </trkpt>
      <trkpt lat="45.5630260" lon="9.1019781">
        <ele>0.00</ele>
      </trkpt>
      <trkpt lat="45.5630060" lon="9.1021080">
        <ele>0.00</ele>
      </trkpt>
      <trkpt lat="45.5629823" lon="9.1022444">
        <ele>0.00</ele>
      </trkpt>
      <trkpt lat="45.5629759" lon="9.1023301">
        <ele>0.00</ele>
      </trkpt>
      <trkpt lat="45.5629705" lon="9.1024185">
        <ele>0.00</ele>
      </trkpt>
      <trkpt lat="45.5630041" lon="9.1024250">
        <ele>0.00</ele>
      </trkpt>
      <trkpt lat="45.5630259" lon="9.1023951">
        <ele>0.00</ele>
      </trkpt>
      <trkpt lat="45.5630787" lon="9.1022808">
        <ele>0.00</ele>
      </trkpt>
      <trkpt lat="45.5631433" lon="9.1021055">
        <ele>0.00</ele>
      </trkpt>
      <trkpt lat="45.5632770" lon="9.1016846">
        <ele>0.00</ele>
      </trkpt>
      <trkpt lat="45.5633794" lon="9.1013348">
        <ele>0.00</ele>
      </trkpt>
      <trkpt lat="45.5634422" lon="9.1010657">
        <ele>0.00</ele>
      </trkpt>
      <trkpt lat="45.5634877" lon="9.1008886">
        <ele>0.00</ele>
      </trkpt>
      <trkpt lat="45.5635301" lon="9.1007855">
        <ele>0.00</ele>
      </trkpt>
      <trkpt lat="45.5635772" lon="9.1007317">
        <ele>0.00</ele>
      </trkpt>
      <trkpt lat="45.5636714" lon="9.1006891">
        <ele>0.00</ele>
      </trkpt>
      <trkpt lat="45.5637359" lon="9.1006614">
        <ele>0.00</ele>
      </trkpt>
      <trkpt lat="45.5637837" lon="9.1006177">
        <ele>0.00</ele>
      </trkpt>
      <trkpt lat="45.5638392" lon="9.1005166">
        <ele>0.00</ele>
      </trkpt>
      <trkpt lat="45.5639311" lon="9.1003117">
        <ele>0.00</ele>
      </trkpt>
      <trkpt lat="45.5640095" lon="9.1001342">
        <ele>0.00</ele>
      </trkpt>
      <trkpt lat="45.5641224" lon="9.1000085">
        <ele>0.00</ele>
      </trkpt>
      <trkpt lat="45.5643921" lon="9.0998146">
        <ele>0.00</ele>
      </trkpt>
      <trkpt lat="45.5645853" lon="9.0996234">
        <ele>0.00</ele>
      </trkpt>
      <trkpt lat="45.5647250" lon="9.0995223">
        <ele>0.00</ele>
      </trkpt>
      <trkpt lat="45.5649158" lon="9.0994263">
        <ele>0.00</ele>
      </trkpt>
      <trkpt lat="45.5651138" lon="9.0992966">
        <ele>0.00</ele>
      </trkpt>
      <trkpt lat="45.5651811" lon="9.0992318">
        <ele>0.00</ele>
      </trkpt>
      <trkpt lat="45.5652283" lon="9.0991409">
        <ele>0.00</ele>
      </trkpt>
      <trkpt lat="45.5652429" lon="9.0990242">
        <ele>0.00</ele>
      </trkpt>
      <trkpt lat="45.5652901" lon="9.0988607">
        <ele>0.00</ele>
      </trkpt>
      <trkpt lat="45.5653464" lon="9.0988036">
        <ele>0.00</ele>
      </trkpt>
      <trkpt lat="45.5654518" lon="9.0987569">
        <ele>0.00</ele>
      </trkpt>
      <trkpt lat="45.5655554" lon="9.0987154">
        <ele>0.00</ele>
      </trkpt>
      <trkpt lat="45.5656647" lon="9.0986174">
        <ele>0.00</ele>
      </trkpt>
      <trkpt lat="45.5657957" lon="9.0984957">
        <ele>0.00</ele>
      </trkpt>
      <trkpt lat="45.5658788" lon="9.0984271">
        <ele>0.00</ele>
      </trkpt>
      <trkpt lat="45.5659115" lon="9.0983428">
        <ele>0.00</ele>
      </trkpt>
      <trkpt lat="45.5659487" lon="9.0982461">
        <ele>0.00</ele>
      </trkpt>
      <trkpt lat="45.5659793" lon="9.0981276">
        <ele>0.00</ele>
      </trkpt>
      <trkpt lat="45.5659968" lon="9.0979840">
        <ele>0.00</ele>
      </trkpt>
      <trkpt lat="45.5660536" lon="9.0978436">
        <ele>0.00</ele>
      </trkpt>
      <trkpt lat="45.5661868" lon="9.0976814">
        <ele>0.00</ele>
      </trkpt>
      <trkpt lat="45.5662873" lon="9.0975098">
        <ele>0.00</ele>
      </trkpt>
      <trkpt lat="45.5664097" lon="9.0972571">
        <ele>0.00</ele>
      </trkpt>
      <trkpt lat="45.5665086" lon="9.0970654">
        <ele>0.00</ele>
      </trkpt>
      <trkpt lat="45.5665980" lon="9.0968243">
        <ele>0.00</ele>
      </trkpt>
      <trkpt lat="45.5666477" lon="9.0966825">
        <ele>0.00</ele>
      </trkpt>
      <trkpt lat="45.5669555" lon="9.0963610">
        <ele>0.00</ele>
      </trkpt>
      <trkpt lat="45.5676010" lon="9.0956567">
        <ele>0.00</ele>
      </trkpt>
      <trkpt lat="45.5681372" lon="9.0950893">
        <ele>0.00</ele>
      </trkpt>
      <trkpt lat="45.5686039" lon="9.0945882">
        <ele>0.00</ele>
      </trkpt>
      <trkpt lat="45.5689487" lon="9.0941794">
        <ele>0.00</ele>
      </trkpt>
      <trkpt lat="45.5694893" lon="9.0935850">
        <ele>0.00</ele>
      </trkpt>
      <trkpt lat="45.5698876" lon="9.0930821">
        <ele>0.00</ele>
      </trkpt>
      <trkpt lat="45.5702789" lon="9.0926198">
        <ele>0.00</ele>
      </trkpt>
      <trkpt lat="45.5704851" lon="9.0923709">
        <ele>0.00</ele>
      </trkpt>
      <trkpt lat="45.5705669" lon="9.0922693">
        <ele>0.00</ele>
      </trkpt>
      <trkpt lat="45.5706274" lon="9.0922846">
        <ele>0.00</ele>
      </trkpt>
      <trkpt lat="45.5706725" lon="9.0923848">
        <ele>0.00</ele>
      </trkpt>
      <trkpt lat="45.5707641" lon="9.0925241">
        <ele>0.00</ele>
      </trkpt>
      <trkpt lat="45.5708675" lon="9.0926160">
        <ele>0.00</ele>
      </trkpt>
      <trkpt lat="45.5710273" lon="9.0928862">
        <ele>0.00</ele>
      </trkpt>
      <trkpt lat="45.5711385" lon="9.0931062">
        <ele>0.00</ele>
      </trkpt>
      <trkpt lat="45.5712262" lon="9.0933095">
        <ele>0.00</ele>
      </trkpt>
      <trkpt lat="45.5712749" lon="9.0935212">
        <ele>0.00</ele>
      </trkpt>
      <trkpt lat="45.5713763" lon="9.0937719">
        <ele>0.00</ele>
      </trkpt>
      <trkpt lat="45.5714646" lon="9.0940057">
        <ele>0.00</ele>
      </trkpt>
      <trkpt lat="45.5715716" lon="9.0943158">
        <ele>0.00</ele>
      </trkpt>
      <trkpt lat="45.5716677" lon="9.0946769">
        <ele>0.00</ele>
      </trkpt>
      <trkpt lat="45.5717638" lon="9.0950823">
        <ele>0.00</ele>
      </trkpt>
      <trkpt lat="45.5718367" lon="9.0955209">
        <ele>0.00</ele>
      </trkpt>
      <trkpt lat="45.5719015" lon="9.0959035">
        <ele>0.00</ele>
      </trkpt>
      <trkpt lat="45.5719517" lon="9.0960872">
        <ele>0.00</ele>
      </trkpt>
      <trkpt lat="45.5719738" lon="9.0966554">
        <ele>0.00</ele>
      </trkpt>
      <trkpt lat="45.5719818" lon="9.0971347">
        <ele>0.00</ele>
      </trkpt>
      <trkpt lat="45.5719938" lon="9.0977603">
        <ele>0.00</ele>
      </trkpt>
      <trkpt lat="45.5720138" lon="9.0987044">
        <ele>0.00</ele>
      </trkpt>
      <trkpt lat="45.5720278" lon="9.0995137">
        <ele>0.00</ele>
      </trkpt>
      <trkpt lat="45.5720578" lon="9.1009418">
        <ele>0.00</ele>
      </trkpt>
      <trkpt lat="45.5720840" lon="9.1020400">
        <ele>0.00</ele>
      </trkpt>
      <trkpt lat="45.5721397" lon="9.1048821">
        <ele>0.00</ele>
      </trkpt>
      <trkpt lat="45.5721090" lon="9.1049743">
        <ele>0.00</ele>
      </trkpt>
      <trkpt lat="45.5720353" lon="9.1050488">
        <ele>0.00</ele>
      </trkpt>
      <trkpt lat="45.5719769" lon="9.1051629">
        <ele>0.00</ele>
      </trkpt>
      <trkpt lat="45.5719769" lon="9.1054042">
        <ele>0.00</ele>
      </trkpt>
      <trkpt lat="45.5720905" lon="9.1057684">
        <ele>0.00</ele>
      </trkpt>
      <trkpt lat="45.5721644" lon="9.1060206">
        <ele>0.00</ele>
      </trkpt>
      <trkpt lat="45.5722600" lon="9.1063232">
        <ele>0.00</ele>
      </trkpt>
      <trkpt lat="45.5723855" lon="9.1065374">
        <ele>0.00</ele>
      </trkpt>
      <trkpt lat="45.5724867" lon="9.1066767">
        <ele>0.00</ele>
      </trkpt>
      <trkpt lat="45.5726029" lon="9.1067329">
        <ele>0.00</ele>
      </trkpt>
      <trkpt lat="45.5727322" lon="9.1068187">
        <ele>0.00</ele>
      </trkpt>
      <trkpt lat="45.5729308" lon="9.1070142">
        <ele>0.00</ele>
      </trkpt>
      <trkpt lat="45.5730848" lon="9.1071172">
        <ele>0.00</ele>
      </trkpt>
      <trkpt lat="45.5732617" lon="9.1071993">
        <ele>0.00</ele>
      </trkpt>
      <trkpt lat="45.5733570" lon="9.1072296">
        <ele>0.00</ele>
      </trkpt>
      <trkpt lat="45.5735794" lon="9.1073572">
        <ele>0.00</ele>
      </trkpt>
      <trkpt lat="45.5736888" lon="9.1073913">
        <ele>0.00</ele>
      </trkpt>
      <trkpt lat="45.5738228" lon="9.1074045">
        <ele>0.00</ele>
      </trkpt>
      <trkpt lat="45.5740313" lon="9.1073696">
        <ele>0.00</ele>
      </trkpt>
      <trkpt lat="45.5742156" lon="9.1073405">
        <ele>0.00</ele>
      </trkpt>
      <trkpt lat="45.5743797" lon="9.1074429">
        <ele>0.00</ele>
      </trkpt>
      <trkpt lat="45.5745641" lon="9.1076091">
        <ele>0.00</ele>
      </trkpt>
      <trkpt lat="45.5747321" lon="9.1078199">
        <ele>0.00</ele>
      </trkpt>
      <trkpt lat="45.5747306" lon="9.1078244">
        <ele>0.00</ele>
      </trkpt>
      <trkpt lat="45.5748846" lon="9.1080258">
        <ele>0.00</ele>
      </trkpt>
      <trkpt lat="45.5749433" lon="9.1081433">
        <ele>0.00</ele>
      </trkpt>
      <trkpt lat="45.5749831" lon="9.1082104">
        <ele>0.00</ele>
      </trkpt>
      <trkpt lat="45.5751339" lon="9.1080033">
        <ele>0.00</ele>
      </trkpt>
      <trkpt lat="45.5751577" lon="9.1079729">
        <ele>0.00</ele>
      </trkpt>
      <trkpt lat="45.5751856" lon="9.1079515">
        <ele>0.00</ele>
      </trkpt>
      <trkpt lat="45.5752187" lon="9.1079630">
        <ele>0.00</ele>
      </trkpt>
      <trkpt lat="45.5752421" lon="9.1080355">
        <ele>0.00</ele>
      </trkpt>
      <trkpt lat="45.5753133" lon="9.1081835">
        <ele>0.00</ele>
      </trkpt>
      <trkpt lat="45.5754254" lon="9.1083561">
        <ele>0.00</ele>
      </trkpt>
      <trkpt lat="45.5755518" lon="9.1085306">
        <ele>0.00</ele>
      </trkpt>
      <trkpt lat="45.5756397" lon="9.1086402">
        <ele>0.00</ele>
      </trkpt>
      <trkpt lat="45.5756774" lon="9.1086598">
        <ele>0.00</ele>
      </trkpt>
      <trkpt lat="45.5758222" lon="9.1086634">
        <ele>0.00</ele>
      </trkpt>
      <trkpt lat="45.5758496" lon="9.1086800">
        <ele>0.00</ele>
      </trkpt>
      <trkpt lat="45.5758534" lon="9.1088005">
        <ele>0.00</ele>
      </trkpt>
      <trkpt lat="45.5758800" lon="9.1089177">
        <ele>0.00</ele>
      </trkpt>
      <trkpt lat="45.5759870" lon="9.1091048">
        <ele>0.00</ele>
      </trkpt>
      <trkpt lat="45.5761305" lon="9.1093152">
        <ele>0.00</ele>
      </trkpt>
      <trkpt lat="45.5762165" lon="9.1094451">
        <ele>0.00</ele>
      </trkpt>
      <trkpt lat="45.5762814" lon="9.1095984">
        <ele>0.00</ele>
      </trkpt>
      <trkpt lat="45.5764224" lon="9.1097942">
        <ele>0.00</ele>
      </trkpt>
      <trkpt lat="45.5765164" lon="9.1098561">
        <ele>0.00</ele>
      </trkpt>
      <trkpt lat="45.5767429" lon="9.1101482">
        <ele>0.00</ele>
      </trkpt>
      <trkpt lat="45.5769696" lon="9.1104486">
        <ele>0.00</ele>
      </trkpt>
      <trkpt lat="45.5770663" lon="9.1105935">
        <ele>0.00</ele>
      </trkpt>
      <trkpt lat="45.5771628" lon="9.1107871">
        <ele>0.00</ele>
      </trkpt>
      <trkpt lat="45.5772613" lon="9.1110419">
        <ele>0.00</ele>
      </trkpt>
      <trkpt lat="45.5773455" lon="9.1113498">
        <ele>0.00</ele>
      </trkpt>
      <trkpt lat="45.5773887" lon="9.1116671">
        <ele>0.00</ele>
      </trkpt>
      <trkpt lat="45.5774022" lon="9.1119499">
        <ele>0.00</ele>
      </trkpt>
      <trkpt lat="45.5773875" lon="9.1124479">
        <ele>0.00</ele>
      </trkpt>
      <trkpt lat="45.5773756" lon="9.1127800">
        <ele>0.00</ele>
      </trkpt>
      <trkpt lat="45.5773645" lon="9.1132233">
        <ele>0.00</ele>
      </trkpt>
      <trkpt lat="45.5773937" lon="9.1135693">
        <ele>0.00</ele>
      </trkpt>
      <trkpt lat="45.5774517" lon="9.1137991">
        <ele>0.00</ele>
      </trkpt>
      <trkpt lat="45.5775648" lon="9.1140166">
        <ele>0.00</ele>
      </trkpt>
      <trkpt lat="45.5776645" lon="9.1141512">
        <ele>0.00</ele>
      </trkpt>
      <trkpt lat="45.5777758" lon="9.1142609">
        <ele>0.00</ele>
      </trkpt>
      <trkpt lat="45.5778848" lon="9.1143465">
        <ele>0.00</ele>
      </trkpt>
      <trkpt lat="45.5781128" lon="9.1143893">
        <ele>0.00</ele>
      </trkpt>
      <trkpt lat="45.5783126" lon="9.1144207">
        <ele>0.00</ele>
      </trkpt>
      <trkpt lat="45.5787141" lon="9.1144905">
        <ele>0.00</ele>
      </trkpt>
      <trkpt lat="45.5789753" lon="9.1144936">
        <ele>0.00</ele>
      </trkpt>
      <trkpt lat="45.5793354" lon="9.1144944">
        <ele>0.00</ele>
      </trkpt>
      <trkpt lat="45.5796214" lon="9.1144959">
        <ele>0.00</ele>
      </trkpt>
      <trkpt lat="45.5797069" lon="9.1145062">
        <ele>0.00</ele>
      </trkpt>
      <trkpt lat="45.5798565" lon="9.1145439">
        <ele>0.00</ele>
      </trkpt>
      <trkpt lat="45.5800053" lon="9.1145541">
        <ele>0.00</ele>
      </trkpt>
      <trkpt lat="45.5800714" lon="9.1145385">
        <ele>0.00</ele>
      </trkpt>
      <trkpt lat="45.5801122" lon="9.1145033">
        <ele>0.00</ele>
      </trkpt>
      <trkpt lat="45.5801686" lon="9.1144509">
        <ele>0.00</ele>
      </trkpt>
      <trkpt lat="45.5802028" lon="9.1145112">
        <ele>0.00</ele>
      </trkpt>
      <trkpt lat="45.5802777" lon="9.1145649">
        <ele>0.00</ele>
      </trkpt>
      <trkpt lat="45.5804406" lon="9.1145763">
        <ele>0.00</ele>
      </trkpt>
      <trkpt lat="45.5806596" lon="9.1145703">
        <ele>0.00</ele>
      </trkpt>
      <trkpt lat="45.5808343" lon="9.1145991">
        <ele>0.00</ele>
      </trkpt>
      <trkpt lat="45.5810494" lon="9.1147034">
        <ele>0.00</ele>
      </trkpt>
      <trkpt lat="45.5812454" lon="9.1148868">
        <ele>0.00</ele>
      </trkpt>
      <trkpt lat="45.5813588" lon="9.1150489">
        <ele>0.00</ele>
      </trkpt>
      <trkpt lat="45.5814777" lon="9.1152691">
        <ele>0.00</ele>
      </trkpt>
      <trkpt lat="45.5815487" lon="9.1155232">
        <ele>0.00</ele>
      </trkpt>
      <trkpt lat="45.5816034" lon="9.1157598">
        <ele>0.00</ele>
      </trkpt>
      <trkpt lat="45.5817107" lon="9.1163008">
        <ele>0.00</ele>
      </trkpt>
      <trkpt lat="45.5817954" lon="9.1167182">
        <ele>0.00</ele>
      </trkpt>
      <trkpt lat="45.5819280" lon="9.1173598">
        <ele>0.00</ele>
      </trkpt>
      <trkpt lat="45.5820065" lon="9.1177156">
        <ele>0.00</ele>
      </trkpt>
      <trkpt lat="45.5820853" lon="9.1179372">
        <ele>0.00</ele>
      </trkpt>
      <trkpt lat="45.5821815" lon="9.1181032">
        <ele>0.00</ele>
      </trkpt>
      <trkpt lat="45.5823002" lon="9.1182383">
        <ele>0.00</ele>
      </trkpt>
      <trkpt lat="45.5823717" lon="9.1182986">
        <ele>0.00</ele>
      </trkpt>
      <trkpt lat="45.5824316" lon="9.1183077">
        <ele>0.00</ele>
      </trkpt>
      <trkpt lat="45.5824646" lon="9.1183201">
        <ele>0.00</ele>
      </trkpt>
      <trkpt lat="45.5824631" lon="9.1184182">
        <ele>0.00</ele>
      </trkpt>
      <trkpt lat="45.5824292" lon="9.1185569">
        <ele>0.00</ele>
      </trkpt>
      <trkpt lat="45.5824157" lon="9.1186317">
        <ele>0.00</ele>
      </trkpt>
      <trkpt lat="45.5824239" lon="9.1186761">
        <ele>0.00</ele>
      </trkpt>
      <trkpt lat="45.5824719" lon="9.1187020">
        <ele>0.00</ele>
      </trkpt>
      <trkpt lat="45.5827180" lon="9.1187331">
        <ele>0.00</ele>
      </trkpt>
      <trkpt lat="45.5829873" lon="9.1187852">
        <ele>0.00</ele>
      </trkpt>
      <trkpt lat="45.5835077" lon="9.1188801">
        <ele>0.00</ele>
      </trkpt>
      <trkpt lat="45.5838864" lon="9.1188443">
        <ele>0.00</ele>
      </trkpt>
      <trkpt lat="45.5845130" lon="9.1187272">
        <ele>0.00</ele>
      </trkpt>
      <trkpt lat="45.5850943" lon="9.1186308">
        <ele>0.00</ele>
      </trkpt>
      <trkpt lat="45.5853294" lon="9.1185888">
        <ele>0.00</ele>
      </trkpt>
      <trkpt lat="45.5855351" lon="9.1185951">
        <ele>0.00</ele>
      </trkpt>
      <trkpt lat="45.5858428" lon="9.1186683">
        <ele>0.00</ele>
      </trkpt>
      <trkpt lat="45.5861486" lon="9.1187687">
        <ele>0.00</ele>
      </trkpt>
      <trkpt lat="45.5866343" lon="9.1189351">
        <ele>0.00</ele>
      </trkpt>
      <trkpt lat="45.5870690" lon="9.1191278">
        <ele>0.00</ele>
      </trkpt>
      <trkpt lat="45.5873666" lon="9.1193292">
        <ele>0.00</ele>
      </trkpt>
      <trkpt lat="45.5876144" lon="9.1195432">
        <ele>0.00</ele>
      </trkpt>
      <trkpt lat="45.5876804" lon="9.1196297">
        <ele>0.00</ele>
      </trkpt>
      <trkpt lat="45.5876996" lon="9.1197174">
        <ele>0.00</ele>
      </trkpt>
      <trkpt lat="45.5877177" lon="9.1197671">
        <ele>0.00</ele>
      </trkpt>
      <trkpt lat="45.5877435" lon="9.1197401">
        <ele>0.00</ele>
      </trkpt>
      <trkpt lat="45.5878256" lon="9.1195625">
        <ele>0.00</ele>
      </trkpt>
      <trkpt lat="45.5879358" lon="9.1193469">
        <ele>0.00</ele>
      </trkpt>
      <trkpt lat="45.5879978" lon="9.1192177">
        <ele>0.00</ele>
      </trkpt>
      <trkpt lat="45.5879921" lon="9.1191963">
        <ele>0.00</ele>
      </trkpt>
      <trkpt lat="45.5878830" lon="9.1191179">
        <ele>0.00</ele>
      </trkpt>
      <trkpt lat="45.5877882" lon="9.1190096">
        <ele>0.00</ele>
      </trkpt>
      <trkpt lat="45.5877082" lon="9.1188876">
        <ele>0.00</ele>
      </trkpt>
      <trkpt lat="45.5876634" lon="9.1187508">
        <ele>0.00</ele>
      </trkpt>
      <trkpt lat="45.5876397" lon="9.1184365">
        <ele>0.00</ele>
      </trkpt>
      <trkpt lat="45.5876330" lon="9.1177466">
        <ele>0.00</ele>
      </trkpt>
      <trkpt lat="45.5876195" lon="9.1174735">
        <ele>0.00</ele>
      </trkpt>
      <trkpt lat="45.5875956" lon="9.1174054">
        <ele>0.00</ele>
      </trkpt>
      <trkpt lat="45.5875588" lon="9.1173596">
        <ele>0.00</ele>
      </trkpt>
      <trkpt lat="45.5875071" lon="9.1172644">
        <ele>0.00</ele>
      </trkpt>
      <trkpt lat="45.5875047" lon="9.1171852">
        <ele>0.00</ele>
      </trkpt>
      <trkpt lat="45.5875337" lon="9.1170897">
        <ele>0.00</ele>
      </trkpt>
      <trkpt lat="45.5875380" lon="9.1169573">
        <ele>0.00</ele>
      </trkpt>
      <trkpt lat="45.5874701" lon="9.1167213">
        <ele>0.00</ele>
      </trkpt>
      <trkpt lat="45.5873811" lon="9.1164069">
        <ele>0.00</ele>
      </trkpt>
      <trkpt lat="45.5872846" lon="9.1160226">
        <ele>0.00</ele>
      </trkpt>
      <trkpt lat="45.5872142" lon="9.1157792">
        <ele>0.00</ele>
      </trkpt>
      <trkpt lat="45.5872139" lon="9.1155592">
        <ele>0.00</ele>
      </trkpt>
      <trkpt lat="45.5872710" lon="9.1152334">
        <ele>0.00</ele>
      </trkpt>
      <trkpt lat="45.5873252" lon="9.1149512">
        <ele>0.00</ele>
      </trkpt>
      <trkpt lat="45.5873345" lon="9.1146934">
        <ele>0.00</ele>
      </trkpt>
      <trkpt lat="45.5872609" lon="9.1143449">
        <ele>0.00</ele>
      </trkpt>
      <trkpt lat="45.5871124" lon="9.1139508">
        <ele>0.00</ele>
      </trkpt>
      <trkpt lat="45.5869827" lon="9.1135355">
        <ele>0.00</ele>
      </trkpt>
      <trkpt lat="45.5869400" lon="9.1133434">
        <ele>0.00</ele>
      </trkpt>
      <trkpt lat="45.5869499" lon="9.1132439">
        <ele>0.00</ele>
      </trkpt>
      <trkpt lat="45.5869797" lon="9.1131585">
        <ele>0.00</ele>
      </trkpt>
      <trkpt lat="45.5870808" lon="9.1130718">
        <ele>0.00</ele>
      </trkpt>
      <trkpt lat="45.5874874" lon="9.1127864">
        <ele>0.00</ele>
      </trkpt>
      <trkpt lat="45.5875625" lon="9.1126981">
        <ele>0.00</ele>
      </trkpt>
      <trkpt lat="45.5876082" lon="9.1125654">
        <ele>0.00</ele>
      </trkpt>
      <trkpt lat="45.5877407" lon="9.1119542">
        <ele>0.00</ele>
      </trkpt>
      <trkpt lat="45.5878511" lon="9.1114188">
        <ele>0.00</ele>
      </trkpt>
      <trkpt lat="45.5880077" lon="9.1106723">
        <ele>0.00</ele>
      </trkpt>
      <trkpt lat="45.5881538" lon="9.1100038">
        <ele>0.00</ele>
      </trkpt>
      <trkpt lat="45.5882050" lon="9.1097003">
        <ele>0.00</ele>
      </trkpt>
      <trkpt lat="45.5882628" lon="9.1094676">
        <ele>0.00</ele>
      </trkpt>
      <trkpt lat="45.5887738" lon="9.1083332">
        <ele>0.00</ele>
      </trkpt>
      <trkpt lat="45.5892394" lon="9.1073206">
        <ele>0.00</ele>
      </trkpt>
      <trkpt lat="45.5899201" lon="9.1059228">
        <ele>0.00</ele>
      </trkpt>
      <trkpt lat="45.5902715" lon="9.1051527">
        <ele>0.00</ele>
      </trkpt>
      <trkpt lat="45.5908850" lon="9.1039316">
        <ele>0.00</ele>
      </trkpt>
      <trkpt lat="45.5911710" lon="9.1033586">
        <ele>0.00</ele>
      </trkpt>
      <trkpt lat="45.5913373" lon="9.1030585">
        <ele>0.00</ele>
      </trkpt>
      <trkpt lat="45.5914780" lon="9.1029145">
        <ele>0.00</ele>
      </trkpt>
      <trkpt lat="45.5916306" lon="9.1028276">
        <ele>0.00</ele>
      </trkpt>
      <trkpt lat="45.5920441" lon="9.1027675">
        <ele>0.00</ele>
      </trkpt>
      <trkpt lat="45.5940192" lon="9.1025478">
        <ele>0.00</ele>
      </trkpt>
      <trkpt lat="45.5944487" lon="9.1026424">
        <ele>0.00</ele>
      </trkpt>
      <trkpt lat="45.5948385" lon="9.1028311">
        <ele>0.00</ele>
      </trkpt>
      <trkpt lat="45.5953502" lon="9.1030274">
        <ele>0.00</ele>
      </trkpt>
      <trkpt lat="45.5960123" lon="9.1032885">
        <ele>0.00</ele>
      </trkpt>
      <trkpt lat="45.5962720" lon="9.1033983">
        <ele>0.00</ele>
      </trkpt>
      <trkpt lat="45.5963076" lon="9.1035476">
        <ele>0.00</ele>
      </trkpt>
      <trkpt lat="45.5964454" lon="9.1037157">
        <ele>0.00</ele>
      </trkpt>
      <trkpt lat="45.5966784" lon="9.1038209">
        <ele>0.00</ele>
      </trkpt>
      <trkpt lat="45.5970491" lon="9.1039490">
        <ele>0.00</ele>
      </trkpt>
      <trkpt lat="45.5971626" lon="9.1040209">
        <ele>0.00</ele>
      </trkpt>
      <trkpt lat="45.5972945" lon="9.1040526">
        <ele>0.00</ele>
      </trkpt>
      <trkpt lat="45.5975193" lon="9.1041185">
        <ele>0.00</ele>
      </trkpt>
      <trkpt lat="45.5975777" lon="9.1041415">
        <ele>0.00</ele>
      </trkpt>
      <trkpt lat="45.5976380" lon="9.1039261">
        <ele>0.00</ele>
      </trkpt>
      <trkpt lat="45.5977176" lon="9.1036293">
        <ele>0.00</ele>
      </trkpt>
      <trkpt lat="45.5978729" lon="9.1030582">
        <ele>0.00</ele>
      </trkpt>
      <trkpt lat="45.5980855" lon="9.1022336">
        <ele>0.00</ele>
      </trkpt>
      <trkpt lat="45.5981033" lon="9.1020954">
        <ele>0.00</ele>
      </trkpt>
      <trkpt lat="45.5980789" lon="9.1018650">
        <ele>0.00</ele>
      </trkpt>
      <trkpt lat="45.5980516" lon="9.1014591">
        <ele>0.00</ele>
      </trkpt>
      <trkpt lat="45.5980381" lon="9.1011858">
        <ele>0.00</ele>
      </trkpt>
      <trkpt lat="45.5980985" lon="9.1008341">
        <ele>0.00</ele>
      </trkpt>
      <trkpt lat="45.5982481" lon="9.1001790">
        <ele>0.00</ele>
      </trkpt>
      <trkpt lat="45.5983897" lon="9.0995439">
        <ele>0.00</ele>
      </trkpt>
      <trkpt lat="45.5985387" lon="9.0988973">
        <ele>0.00</ele>
      </trkpt>
      <trkpt lat="45.5985971" lon="9.0987142">
        <ele>0.00</ele>
      </trkpt>
      <trkpt lat="45.5986927" lon="9.0984957">
        <ele>0.00</ele>
      </trkpt>
      <trkpt lat="45.5987389" lon="9.0984159">
        <ele>0.00</ele>
      </trkpt>
      <trkpt lat="45.5988404" lon="9.0983838">
        <ele>0.00</ele>
      </trkpt>
      <trkpt lat="45.5988989" lon="9.0982885">
        <ele>0.00</ele>
      </trkpt>
      <trkpt lat="45.5989805" lon="9.0981113">
        <ele>0.00</ele>
      </trkpt>
      <trkpt lat="45.5990346" lon="9.0979540">
        <ele>0.00</ele>
      </trkpt>
      <trkpt lat="45.5990181" lon="9.0978379">
        <ele>0.00</ele>
      </trkpt>
      <trkpt lat="45.5989819" lon="9.0975802">
        <ele>0.00</ele>
      </trkpt>
      <trkpt lat="45.5989857" lon="9.0974555">
        <ele>0.00</ele>
      </trkpt>
      <trkpt lat="45.5990241" lon="9.0974192">
        <ele>0.00</ele>
      </trkpt>
      <trkpt lat="45.5990914" lon="9.0974297">
        <ele>0.00</ele>
      </trkpt>
      <trkpt lat="45.5992116" lon="9.0974073">
        <ele>0.00</ele>
      </trkpt>
      <trkpt lat="45.5998028" lon="9.0971306">
        <ele>0.00</ele>
      </trkpt>
      <trkpt lat="45.6009706" lon="9.0966452">
        <ele>0.00</ele>
      </trkpt>
      <trkpt lat="45.6015920" lon="9.0963660">
        <ele>0.00</ele>
      </trkpt>
      <trkpt lat="45.6023922" lon="9.0960520">
        <ele>0.00</ele>
      </trkpt>
      <trkpt lat="45.6028404" lon="9.0958597">
        <ele>0.00</ele>
      </trkpt>
      <trkpt lat="45.6032514" lon="9.0956188">
        <ele>0.00</ele>
      </trkpt>
      <trkpt lat="45.6038552" lon="9.0953977">
        <ele>0.00</ele>
      </trkpt>
      <trkpt lat="45.6046510" lon="9.0951103">
        <ele>0.00</ele>
      </trkpt>
      <trkpt lat="45.6053283" lon="9.0948168">
        <ele>0.00</ele>
      </trkpt>
      <trkpt lat="45.6056084" lon="9.0946907">
        <ele>0.00</ele>
      </trkpt>
      <trkpt lat="45.6056708" lon="9.0945649">
        <ele>0.00</ele>
      </trkpt>
      <trkpt lat="45.6057270" lon="9.0943922">
        <ele>0.00</ele>
      </trkpt>
      <trkpt lat="45.6057642" lon="9.0942207">
        <ele>0.00</ele>
      </trkpt>
      <trkpt lat="45.6057231" lon="9.0939661">
        <ele>0.00</ele>
      </trkpt>
      <trkpt lat="45.6055939" lon="9.0933112">
        <ele>0.00</ele>
      </trkpt>
      <trkpt lat="45.6054228" lon="9.0925304">
        <ele>0.00</ele>
      </trkpt>
      <trkpt lat="45.6052933" lon="9.0918687">
        <ele>0.00</ele>
      </trkpt>
      <trkpt lat="45.6052281" lon="9.0917511">
        <ele>0.00</ele>
      </trkpt>
      <trkpt lat="45.6050620" lon="9.0908278">
        <ele>0.00</ele>
      </trkpt>
      <trkpt lat="45.6049699" lon="9.0903079">
        <ele>0.00</ele>
      </trkpt>
      <trkpt lat="45.6049260" lon="9.0897790">
        <ele>0.00</ele>
      </trkpt>
      <trkpt lat="45.6048937" lon="9.0892437">
        <ele>0.00</ele>
      </trkpt>
      <trkpt lat="45.6048841" lon="9.0886847">
        <ele>0.00</ele>
      </trkpt>
      <trkpt lat="45.6048759" lon="9.0880472">
        <ele>0.00</ele>
      </trkpt>
      <trkpt lat="45.6049248" lon="9.0876075">
        <ele>0.00</ele>
      </trkpt>
      <trkpt lat="45.6049568" lon="9.0872528">
        <ele>0.00</ele>
      </trkpt>
      <trkpt lat="45.6049304" lon="9.0871594">
        <ele>0.00</ele>
      </trkpt>
      <trkpt lat="45.6046479" lon="9.0871382">
        <ele>0.00</ele>
      </trkpt>
      <trkpt lat="45.6043340" lon="9.0871191">
        <ele>0.00</ele>
      </trkpt>
      <trkpt lat="45.6039793" lon="9.0871697">
        <ele>0.00</ele>
      </trkpt>
      <trkpt lat="45.6036723" lon="9.0872452">
        <ele>0.00</ele>
      </trkpt>
      <trkpt lat="45.6032515" lon="9.0873112">
        <ele>0.00</ele>
      </trkpt>
      <trkpt lat="45.6014798" lon="9.0875804">
        <ele>0.00</ele>
      </trkpt>
      <trkpt lat="45.6007014" lon="9.0877119">
        <ele>0.00</ele>
      </trkpt>
      <trkpt lat="45.5985426" lon="9.0880933">
        <ele>0.00</ele>
      </trkpt>
      <trkpt lat="45.5983237" lon="9.0879325">
        <ele>0.00</ele>
      </trkpt>
      <trkpt lat="45.5977866" lon="9.0872959">
        <ele>0.00</ele>
      </trkpt>
      <trkpt lat="45.5967462" lon="9.0860842">
        <ele>0.00</ele>
      </trkpt>
      <trkpt lat="45.5964682" lon="9.0857368">
        <ele>0.00</ele>
      </trkpt>
      <trkpt lat="45.5964186" lon="9.0856349">
        <ele>0.00</ele>
      </trkpt>
      <trkpt lat="45.5963600" lon="9.0856063">
        <ele>0.00</ele>
      </trkpt>
      <trkpt lat="45.5963035" lon="9.0856496">
        <ele>0.00</ele>
      </trkpt>
      <trkpt lat="45.5962743" lon="9.0857507">
        <ele>0.00</ele>
      </trkpt>
      <trkpt lat="45.5962570" lon="9.0866816">
        <ele>0.00</ele>
      </trkpt>
      <trkpt lat="45.5962199" lon="9.0885257">
        <ele>0.00</ele>
      </trkpt>
      <trkpt lat="45.5961622" lon="9.0895901">
        <ele>0.00</ele>
      </trkpt>
      <trkpt lat="45.5959806" lon="9.0925512">
        <ele>0.00</ele>
      </trkpt>
      <trkpt lat="45.5959522" lon="9.0926589">
        <ele>0.00</ele>
      </trkpt>
      <trkpt lat="45.5957491" lon="9.0928232">
        <ele>0.00</ele>
      </trkpt>
      <trkpt lat="45.5954017" lon="9.0932286">
        <ele>0.00</ele>
      </trkpt>
      <trkpt lat="45.5948801" lon="9.0938166">
        <ele>0.00</ele>
      </trkpt>
      <trkpt lat="45.5945035" lon="9.0941886">
        <ele>0.00</ele>
      </trkpt>
      <trkpt lat="45.5942947" lon="9.0941483">
        <ele>0.00</ele>
      </trkpt>
      <trkpt lat="45.5940104" lon="9.0940813">
        <ele>0.00</ele>
      </trkpt>
      <trkpt lat="45.5938792" lon="9.0938969">
        <ele>0.00</ele>
      </trkpt>
      <trkpt lat="45.5936746" lon="9.0935693">
        <ele>0.00</ele>
      </trkpt>
      <trkpt lat="45.5931549" lon="9.0925896">
        <ele>0.00</ele>
      </trkpt>
      <trkpt lat="45.5929375" lon="9.0923835">
        <ele>0.00</ele>
      </trkpt>
      <trkpt lat="45.5927530" lon="9.0922379">
        <ele>0.00</ele>
      </trkpt>
      <trkpt lat="45.5925112" lon="9.0921378">
        <ele>0.00</ele>
      </trkpt>
      <trkpt lat="45.5922498" lon="9.0921125">
        <ele>0.00</ele>
      </trkpt>
      <trkpt lat="45.5920576" lon="9.0920723">
        <ele>0.00</ele>
      </trkpt>
      <trkpt lat="45.5918048" lon="9.0922090">
        <ele>0.00</ele>
      </trkpt>
      <trkpt lat="45.5916882" lon="9.0922374">
        <ele>0.00</ele>
      </trkpt>
      <trkpt lat="45.5915372" lon="9.0922208">
        <ele>0.00</ele>
      </trkpt>
      <trkpt lat="45.5913429" lon="9.0921125">
        <ele>0.00</ele>
      </trkpt>
      <trkpt lat="45.5912289" lon="9.0919886">
        <ele>0.00</ele>
      </trkpt>
      <trkpt lat="45.5911710" lon="9.0918978">
        <ele>0.00</ele>
      </trkpt>
      <trkpt lat="45.5910404" lon="9.0919481">
        <ele>0.00</ele>
      </trkpt>
      <trkpt lat="45.5909473" lon="9.0921429">
        <ele>0.00</ele>
      </trkpt>
      <trkpt lat="45.5908948" lon="9.0924611">
        <ele>0.00</ele>
      </trkpt>
      <trkpt lat="45.5908446" lon="9.0926164">
        <ele>0.00</ele>
      </trkpt>
      <trkpt lat="45.5907493" lon="9.0926225">
        <ele>0.00</ele>
      </trkpt>
      <trkpt lat="45.5903813" lon="9.0924780">
        <ele>0.00</ele>
      </trkpt>
      <trkpt lat="45.5899273" lon="9.0922898">
        <ele>0.00</ele>
      </trkpt>
      <trkpt lat="45.5896651" lon="9.0922173">
        <ele>0.00</ele>
      </trkpt>
      <trkpt lat="45.5894906" lon="9.0920699">
        <ele>0.00</ele>
      </trkpt>
      <trkpt lat="45.5892203" lon="9.0918493">
        <ele>0.00</ele>
      </trkpt>
      <trkpt lat="45.5890028" lon="9.0916551">
        <ele>0.00</ele>
      </trkpt>
      <trkpt lat="45.5888381" lon="9.0914873">
        <ele>0.00</ele>
      </trkpt>
      <trkpt lat="45.5887936" lon="9.0913960">
        <ele>0.00</ele>
      </trkpt>
      <trkpt lat="45.5887829" lon="9.0912729">
        <ele>0.00</ele>
      </trkpt>
      <trkpt lat="45.5887351" lon="9.0911868">
        <ele>0.00</ele>
      </trkpt>
      <trkpt lat="45.5886445" lon="9.0911727">
        <ele>0.00</ele>
      </trkpt>
      <trkpt lat="45.5885005" lon="9.0911125">
        <ele>0.00</ele>
      </trkpt>
      <trkpt lat="45.5882307" lon="9.0909068">
        <ele>0.00</ele>
      </trkpt>
      <trkpt lat="45.5878795" lon="9.0906518">
        <ele>0.00</ele>
      </trkpt>
      <trkpt lat="45.5877491" lon="9.0905082">
        <ele>0.00</ele>
      </trkpt>
      <trkpt lat="45.5876664" lon="9.0904464">
        <ele>0.00</ele>
      </trkpt>
      <trkpt lat="45.5875544" lon="9.0904498">
        <ele>0.00</ele>
      </trkpt>
      <trkpt lat="45.5874054" lon="9.0903513">
        <ele>0.00</ele>
      </trkpt>
      <trkpt lat="45.5872877" lon="9.0902545">
        <ele>0.00</ele>
      </trkpt>
      <trkpt lat="45.5871221" lon="9.0902092">
        <ele>0.00</ele>
      </trkpt>
      <trkpt lat="45.5869612" lon="9.0901737">
        <ele>0.00</ele>
      </trkpt>
      <trkpt lat="45.5866617" lon="9.0901745">
        <ele>0.00</ele>
      </trkpt>
      <trkpt lat="45.5858420" lon="9.0903145">
        <ele>0.00</ele>
      </trkpt>
      <trkpt lat="45.5854226" lon="9.0904070">
        <ele>0.00</ele>
      </trkpt>
      <trkpt lat="45.5853418" lon="9.0904214">
        <ele>0.00</ele>
      </trkpt>
      <trkpt lat="45.5852684" lon="9.0904235">
        <ele>0.00</ele>
      </trkpt>
      <trkpt lat="45.5852018" lon="9.0904041">
        <ele>0.00</ele>
      </trkpt>
      <trkpt lat="45.5851829" lon="9.0904473">
        <ele>0.00</ele>
      </trkpt>
      <trkpt lat="45.5851676" lon="9.0907209">
        <ele>0.00</ele>
      </trkpt>
      <trkpt lat="45.5851077" lon="9.0909764">
        <ele>0.00</ele>
      </trkpt>
      <trkpt lat="45.5849812" lon="9.0914512">
        <ele>0.00</ele>
      </trkpt>
      <trkpt lat="45.5847916" lon="9.0920191">
        <ele>0.00</ele>
      </trkpt>
      <trkpt lat="45.5847137" lon="9.0922286">
        <ele>0.00</ele>
      </trkpt>
      <trkpt lat="45.5846047" lon="9.0923548">
        <ele>0.00</ele>
      </trkpt>
      <trkpt lat="45.5844374" lon="9.0924411">
        <ele>0.00</ele>
      </trkpt>
      <trkpt lat="45.5842835" lon="9.0924572">
        <ele>0.00</ele>
      </trkpt>
      <trkpt lat="45.5841665" lon="9.0924583">
        <ele>0.00</ele>
      </trkpt>
      <trkpt lat="45.5840761" lon="9.0923884">
        <ele>0.00</ele>
      </trkpt>
      <trkpt lat="45.5839508" lon="9.0923333">
        <ele>0.00</ele>
      </trkpt>
      <trkpt lat="45.5838890" lon="9.0923341">
        <ele>0.00</ele>
      </trkpt>
      <trkpt lat="45.5838005" lon="9.0923965">
        <ele>0.00</ele>
      </trkpt>
      <trkpt lat="45.5836861" lon="9.0924795">
        <ele>0.00</ele>
      </trkpt>
      <trkpt lat="45.5835986" lon="9.0925040">
        <ele>0.00</ele>
      </trkpt>
      <trkpt lat="45.5835390" lon="9.0925046">
        <ele>0.00</ele>
      </trkpt>
      <trkpt lat="45.5834955" lon="9.0924538">
        <ele>0.00</ele>
      </trkpt>
      <trkpt lat="45.5834483" lon="9.0923559">
        <ele>0.00</ele>
      </trkpt>
      <trkpt lat="45.5833871" lon="9.0922763">
        <ele>0.00</ele>
      </trkpt>
      <trkpt lat="45.5833055" lon="9.0921889">
        <ele>0.00</ele>
      </trkpt>
      <trkpt lat="45.5831887" lon="9.0921441">
        <ele>0.00</ele>
      </trkpt>
      <trkpt lat="45.5828340" lon="9.0920580">
        <ele>0.00</ele>
      </trkpt>
      <trkpt lat="45.5827709" lon="9.0920218">
        <ele>0.00</ele>
      </trkpt>
      <trkpt lat="45.5827291" lon="9.0919440">
        <ele>0.00</ele>
      </trkpt>
      <trkpt lat="45.5826366" lon="9.0911453">
        <ele>0.00</ele>
      </trkpt>
      <trkpt lat="45.5826128" lon="9.0911026">
        <ele>0.00</ele>
      </trkpt>
      <trkpt lat="45.5825255" lon="9.0911041">
        <ele>0.00</ele>
      </trkpt>
      <trkpt lat="45.5823903" lon="9.0911006">
        <ele>0.00</ele>
      </trkpt>
      <trkpt lat="45.5819992" lon="9.0912020">
        <ele>0.00</ele>
      </trkpt>
      <trkpt lat="45.5818195" lon="9.0912616">
        <ele>0.00</ele>
      </trkpt>
      <trkpt lat="45.5817443" lon="9.0913184">
        <ele>0.00</ele>
      </trkpt>
      <trkpt lat="45.5816425" lon="9.0914291">
        <ele>0.00</ele>
      </trkpt>
      <trkpt lat="45.5815874" lon="9.0914788">
        <ele>0.00</ele>
      </trkpt>
      <trkpt lat="45.5815483" lon="9.0915884">
        <ele>0.00</ele>
      </trkpt>
      <trkpt lat="45.5815833" lon="9.0917395">
        <ele>0.00</ele>
      </trkpt>
      <trkpt lat="45.5815152" lon="9.0918914">
        <ele>0.00</ele>
      </trkpt>
      <trkpt lat="45.5814253" lon="9.0918653">
        <ele>0.00</ele>
      </trkpt>
      <trkpt lat="45.5813125" lon="9.0918840">
        <ele>0.00</ele>
      </trkpt>
      <trkpt lat="45.5811527" lon="9.0918913">
        <ele>0.00</ele>
      </trkpt>
      <trkpt lat="45.5810773" lon="9.0918729">
        <ele>0.00</ele>
      </trkpt>
      <trkpt lat="45.5809745" lon="9.0918057">
        <ele>0.00</ele>
      </trkpt>
      <trkpt lat="45.5808581" lon="9.0917028">
        <ele>0.00</ele>
      </trkpt>
      <trkpt lat="45.5807112" lon="9.0916974">
        <ele>0.00</ele>
      </trkpt>
      <trkpt lat="45.5805637" lon="9.0917546">
        <ele>0.00</ele>
      </trkpt>
      <trkpt lat="45.5803876" lon="9.0918835">
        <ele>0.00</ele>
      </trkpt>
      <trkpt lat="45.5802553" lon="9.0920979">
        <ele>0.00</ele>
      </trkpt>
      <trkpt lat="45.5802371" lon="9.0923417">
        <ele>0.00</ele>
      </trkpt>
      <trkpt lat="45.5802636" lon="9.0926122">
        <ele>0.00</ele>
      </trkpt>
      <trkpt lat="45.5803377" lon="9.0928428">
        <ele>0.00</ele>
      </trkpt>
      <trkpt lat="45.5802977" lon="9.0929630">
        <ele>0.00</ele>
      </trkpt>
      <trkpt lat="45.5800155" lon="9.0931575">
        <ele>0.00</ele>
      </trkpt>
      <trkpt lat="45.5796874" lon="9.0932850">
        <ele>0.00</ele>
      </trkpt>
      <trkpt lat="45.5794219" lon="9.0933534">
        <ele>0.00</ele>
      </trkpt>
      <trkpt lat="45.5792883" lon="9.0934302">
        <ele>0.00</ele>
      </trkpt>
      <trkpt lat="45.5790977" lon="9.0937023">
        <ele>0.00</ele>
      </trkpt>
      <trkpt lat="45.5789433" lon="9.0940359">
        <ele>0.00</ele>
      </trkpt>
      <trkpt lat="45.5787374" lon="9.0943728">
        <ele>0.00</ele>
      </trkpt>
      <trkpt lat="45.5785963" lon="9.0944701">
        <ele>0.00</ele>
      </trkpt>
      <trkpt lat="45.5784699" lon="9.0944928">
        <ele>0.00</ele>
      </trkpt>
      <trkpt lat="45.5783026" lon="9.0945231">
        <ele>0.00</ele>
      </trkpt>
      <trkpt lat="45.5781710" lon="9.0944873">
        <ele>0.00</ele>
      </trkpt>
      <trkpt lat="45.5780653" lon="9.0944008">
        <ele>0.00</ele>
      </trkpt>
      <trkpt lat="45.5779667" lon="9.0942109">
        <ele>0.00</ele>
      </trkpt>
      <trkpt lat="45.5778839" lon="9.0938678">
        <ele>0.00</ele>
      </trkpt>
      <trkpt lat="45.5778410" lon="9.0934830">
        <ele>0.00</ele>
      </trkpt>
      <trkpt lat="45.5778456" lon="9.0929677">
        <ele>0.00</ele>
      </trkpt>
      <trkpt lat="45.5778567" lon="9.0926628">
        <ele>0.00</ele>
      </trkpt>
      <trkpt lat="45.5778375" lon="9.0923795">
        <ele>0.00</ele>
      </trkpt>
      <trkpt lat="45.5777975" lon="9.0923085">
        <ele>0.00</ele>
      </trkpt>
      <trkpt lat="45.5777601" lon="9.0923207">
        <ele>0.00</ele>
      </trkpt>
      <trkpt lat="45.5776914" lon="9.0924281">
        <ele>0.00</ele>
      </trkpt>
      <trkpt lat="45.5774641" lon="9.0928060">
        <ele>0.00</ele>
      </trkpt>
      <trkpt lat="45.5772404" lon="9.0931166">
        <ele>0.00</ele>
      </trkpt>
      <trkpt lat="45.5770414" lon="9.0933886">
        <ele>0.00</ele>
      </trkpt>
      <trkpt lat="45.5768242" lon="9.0935383">
        <ele>0.00</ele>
      </trkpt>
      <trkpt lat="45.5765908" lon="9.0936314">
        <ele>0.00</ele>
      </trkpt>
      <trkpt lat="45.5763134" lon="9.0937931">
        <ele>0.00</ele>
      </trkpt>
      <trkpt lat="45.5761457" lon="9.0938655">
        <ele>0.00</ele>
      </trkpt>
      <trkpt lat="45.5759633" lon="9.0938400">
        <ele>0.00</ele>
      </trkpt>
      <trkpt lat="45.5757875" lon="9.0937856">
        <ele>0.00</ele>
      </trkpt>
      <trkpt lat="45.5755572" lon="9.0937447">
        <ele>0.00</ele>
      </trkpt>
      <trkpt lat="45.5753074" lon="9.0937729">
        <ele>0.00</ele>
      </trkpt>
      <trkpt lat="45.5752118" lon="9.0938963">
        <ele>0.00</ele>
      </trkpt>
      <trkpt lat="45.5750833" lon="9.0940712">
        <ele>0.00</ele>
      </trkpt>
      <trkpt lat="45.5749218" lon="9.0941617">
        <ele>0.00</ele>
      </trkpt>
      <trkpt lat="45.5746326" lon="9.0941740">
        <ele>0.00</ele>
      </trkpt>
      <trkpt lat="45.5745131" lon="9.0940828">
        <ele>0.00</ele>
      </trkpt>
      <trkpt lat="45.5739970" lon="9.0941650">
        <ele>0.00</ele>
      </trkpt>
      <trkpt lat="45.5737337" lon="9.0941756">
        <ele>0.00</ele>
      </trkpt>
      <trkpt lat="45.5734866" lon="9.0941876">
        <ele>0.00</ele>
      </trkpt>
      <trkpt lat="45.5733459" lon="9.0942098">
        <ele>0.00</ele>
      </trkpt>
      <trkpt lat="45.5731633" lon="9.0942280">
        <ele>0.00</ele>
      </trkpt>
      <trkpt lat="45.5730031" lon="9.0942216">
        <ele>0.00</ele>
      </trkpt>
      <trkpt lat="45.5727445" lon="9.0941056">
        <ele>0.00</ele>
      </trkpt>
      <trkpt lat="45.5724771" lon="9.0938576">
        <ele>0.00</ele>
      </trkpt>
      <trkpt lat="45.5722975" lon="9.0935279">
        <ele>0.00</ele>
      </trkpt>
      <trkpt lat="45.5720162" lon="9.0929985">
        <ele>0.00</ele>
      </trkpt>
      <trkpt lat="45.5717083" lon="9.0924255">
        <ele>0.00</ele>
      </trkpt>
      <trkpt lat="45.5711485" lon="9.0915434">
        <ele>0.00</ele>
      </trkpt>
      <trkpt lat="45.5711756" lon="9.0914780">
        <ele>0.00</ele>
      </trkpt>
      <trkpt lat="45.5712661" lon="9.0913812">
        <ele>0.00</ele>
      </trkpt>
      <trkpt lat="45.5713651" lon="9.0912869">
        <ele>0.00</ele>
      </trkpt>
      <trkpt lat="45.5711112" lon="9.0908417">
        <ele>0.00</ele>
      </trkpt>
      <trkpt lat="45.5712957" lon="9.0906265">
        <ele>0.00</ele>
      </trkpt>
      <trkpt lat="45.5712799" lon="9.0905972">
        <ele>0.00</ele>
      </trkpt>
      <trkpt lat="45.5712060" lon="9.0906808">
        <ele>0.00</ele>
      </trkpt>
      <trkpt lat="45.5711279" lon="9.0905613">
        <ele>0.00</ele>
      </trkpt>
      <trkpt lat="45.5708425" lon="9.0908800">
        <ele>0.00</ele>
      </trkpt>
      <trkpt lat="45.5706286" lon="9.0904930">
        <ele>0.00</ele>
      </trkpt>
      <trkpt lat="45.5704893" lon="9.0906721">
        <ele>0.00</ele>
      </trkpt>
      <trkpt lat="45.5701800" lon="9.0909947">
        <ele>0.00</ele>
      </trkpt>
      <trkpt lat="45.5699997" lon="9.0911745">
        <ele>0.00</ele>
      </trkpt>
      <trkpt lat="45.5699230" lon="9.0912355">
        <ele>0.00</ele>
      </trkpt>
      <trkpt lat="45.5697191" lon="9.0913270">
        <ele>0.00</ele>
      </trkpt>
      <trkpt lat="45.5696562" lon="9.0912413">
        <ele>0.00</ele>
      </trkpt>
      <trkpt lat="45.5695865" lon="9.0910213">
        <ele>0.00</ele>
      </trkpt>
      <trkpt lat="45.5695540" lon="9.0907354">
        <ele>0.00</ele>
      </trkpt>
    </trkseg>
  </trk>
</gpx>
